{
"type": "FeatureCollection",
"name": "buildings",
"crs": { "type": "name", "properties": { "name": "urn:ogc:def:crs:OGC:1.3:CRS84" } },
"features": [
{"type":"Feature","properties":{"fid":1,"id":"hostel_l_building","name":"Hostel L","building_type":"boys_hostel","status":"open"},"geometry":{"type":"Polygon","coordinates":[[[7.411066892135783,9.286459707551359],[7.411034378280516,9.286314879142093],[7.411064517211993,9.286306206780361],[7.411065056690011,9.286299817886849],[7.411084477898667,9.286295558624447],[7.411086635810738,9.286302479925826],[7.411106596497413,9.286298220663458],[7.411107675453447,9.286291299361993],[7.411138425700485,9.286284910468213],[7.411140583612557,9.286292896585419],[7.411188057678155,9.286282780836926],[7.411190755068248,9.286279053982145],[7.41121988688123,9.286270535456781],[7.411220965837266,9.286277456758658],[7.411234992265738,9.286272665088143],[7.411270597814938,9.286264678970475],[7.411270597814938,9.286257225260483],[7.411232294875647,9.286264146562623],[7.411224202705375,9.286236993761152],[7.411217728969156,9.286238058576934],[7.411211255232939,9.286205581694077],[7.411216110535102,9.286202387246419],[7.411206399930776,9.286154470528073],[7.411199805540822,9.286154303576529],[7.411192973643096,9.286121340906886],[7.411199046441075,9.286119842603647],[7.411193432244628,9.286085671701308],[7.411336781785788,9.286055739516307],[7.411335802861285,9.286024084857154],[7.411367475050292,9.286018648834789],[7.411362225402325,9.285991824333371],[7.411369075916844,9.285989892693403],[7.41135635353274,9.285940152960515],[7.41134901369576,9.285937738410194],[7.411341184536311,9.285906832164633],[7.411346567083433,9.285904417614089],[7.411340695213847,9.285870613904649],[7.411484066696228,9.285834878551126],[7.411492874500607,9.285866267713198],[7.41149776772526,9.285866267713198],[7.411588800320628,9.286253873132516],[7.411642304407477,9.286242848192877],[7.411669817786403,9.286385533476675],[7.411616948940623,9.286395116814548],[7.411599146166024,9.286347732530281],[7.411586198693587,9.286350394568892],[7.411587817127642,9.286357848276898],[7.411554369490513,9.286364769577046],[7.411551672100423,9.286359445500025],[7.41150147027304,9.286369692198432],[7.411501785694665,9.286378408255334],[7.411472136061994,9.286384322722393],[7.411469612689002,9.286377785679846],[7.411419460650763,9.286388680750687],[7.411419776072387,9.286394906505299],[7.411386972223476,9.286401132259799],[7.411384764272108,9.28639677423166],[7.411365208131413,9.286400820972082],[7.411368362347654,9.286412027329918],[7.411339974401482,9.286420120810357],[7.41133618934199,9.286413272480766],[7.411306539709321,9.286420120810357],[7.411304331757952,9.286414206343899],[7.411254179719713,9.286424167550502],[7.411254179719713,9.286435062619899],[7.411223583822171,9.286440354510626],[7.411221375870804,9.286433506181435],[7.41116933130282,9.286442222236751],[7.411170277567691,9.28644969314113],[7.411140627935023,9.286455296319312],[7.411137789140406,9.286448136702729],[7.411116971313212,9.286451560867199],[7.411117286734836,9.286458720483711],[7.411098046015763,9.286462144648079],[7.411095838064394,9.286455607606985],[7.411067134696597,9.286460588209735],[7.411066892135783,9.286459707551359]]]}},
{"type":"Feature","properties":{"fid":2,"id":"hostel_k_building","name":"Hostel K","building_type":"boys_hostel","status":"open"},"geometry":{"type":"Polygon","coordinates":[[[7.411104300895025,9.286665410939699],[7.411067076911769,9.286506221138266],[7.411108077241153,9.286497702618426],[7.411109156197189,9.286504623915809],[7.411249882891641,9.286478612006245],[7.411249882891641,9.286458329814208],[7.411389633387777,9.286428413578811],[7.41139271611931,9.286449709882236],[7.4115345217698,9.286423343030185],[7.411537090712744,9.286415737207109],[7.411574597279722,9.286406610219199],[7.411576138645487,9.286412694877834],[7.411611590058109,9.286405089054526],[7.41162392098424,9.286462893307517],[7.411613645212465,9.286485710773176],[7.411634196756014,9.286506500018371],[7.411648069047909,9.286557712543962],[7.411613131423877,9.286563797199971],[7.41161570036682,9.286572417129136],[7.411570486971012,9.286581544112723],[7.411570486971012,9.286574952402381],[7.411396826428018,9.28660689684367],[7.411398881582374,9.286620587317623],[7.411355209552331,9.286627179027111],[7.411351099243622,9.2866145026626],[7.411146611385305,9.286649489427534],[7.411147125173894,9.286659630518168],[7.41110448072103,9.286666222226918],[7.411104300895025,9.286665410939699]]]}},
{"type":"Feature","properties":{"fid":3,"id":"hostel_i_building","name":"Hostel I","building_type":"boys_hostel","status":"open"},"geometry":{"type":"Polygon","coordinates":[[[7.411036432204903,9.287011591419988],[7.411015719460547,9.286950267669306],[7.410997492245512,9.286953538269612],[7.410973465462058,9.286886490957214],[7.410989207147771,9.286876679154322],[7.410969322913187,9.286814537729631],[7.411072886634974,9.286782649362685],[7.411077029183845,9.286789190566401],[7.411123425731206,9.286774472857875],[7.411123425731206,9.286767931653886],[7.41122781796277,9.286737678583851],[7.411246873687578,9.286798184721304],[7.411269243451485,9.286790825867305],[7.41128995619584,9.286858690848311],[7.411270900471033,9.286861961449471],[7.411292441725164,9.28692982641669],[7.41118722098383,9.286964167720402],[7.411185563964281,9.286957626519957],[7.411139167416918,9.286969073620655],[7.411139167416918,9.286977250120929],[7.411036432204903,9.287011591419988]]]}},
{"type":"Feature","properties":{"fid":4,"id":"hostel_n_building","name":"Hostel N","building_type":"boys_hostel","status":"open"},"geometry":{"type":"Polygon","coordinates":[[[7.410161356948069,9.28718418763173],[7.409918831771417,9.286844991435881],[7.410180699446821,9.286645291357486],[7.410418760969915,9.287002108329325],[7.41033692732135,9.287052033308751],[7.410171772139704,9.286817092167059],[7.410164332717108,9.286824434080124],[7.410164332717108,9.286865548790431],[7.410146478102876,9.286883169379086],[7.410122671950566,9.286886106143776],[7.41010928098989,9.286883169379086],[7.410101841567293,9.286872890702478],[7.410086962722101,9.286883169379086],[7.410250630019229,9.287116642095103],[7.410161356948069,9.28718418763173]]]}},
{"type":"Feature","properties":{"fid":5,"id":"hostel_j_building","name":"Hostel J","building_type":"boys_hostel","status":"open"},"geometry":{"type":"Polygon","coordinates":[[[7.411413196843771,9.286907225653152],[7.411400314281683,9.286842244485992],[7.411383137532232,9.28684295080309],[7.411370970668037,9.286776556989546],[7.411388863115382,9.286772319086131],[7.411377411949082,9.286708750528691],[7.411489060820512,9.286690386276616],[7.411490350869632,9.286698102098416],[7.411534178667781,9.286688996128548],[7.411536485393998,9.286681711352482],[7.4116453628715,9.286662133516057],[7.411657819193077,9.286727696498856],[7.411675350312337,9.286724509409698],[7.41168826797916,9.286791893574296],[7.411670275514657,9.28679644655792],[7.41168088645526,9.286864286006955],[7.411570624942028,9.286882042639098],[7.411569240906298,9.286873391972273],[7.411525874453394,9.286879766147848],[7.411528181179614,9.286888872112758],[7.411413196843771,9.286907225653152]]]}},
{"type":"Feature","properties":{"fid":6,"id":"chapel_building","name":"Chapel","building_type":"service","status":"open"},"geometry":{"type":"Polygon","coordinates":[[[7.418586819993593,9.288078175870808],[7.41853845776577,9.288008753076779],[7.418498888670281,9.287928482954031],[7.418496690387197,9.287863399057226],[7.418520871501109,9.287811331931072],[7.418503285236445,9.287793976220636],[7.418536259482687,9.287746248012503],[7.418547250898103,9.287750586940787],[7.418611001107505,9.287663808364957],[7.41890337275752,9.287678994617279],[7.418964924683839,9.287830857104286],[7.418991304080833,9.287830857104286],[7.418995700646997,9.287904618859944],[7.418942941853009,9.287991397376121],[7.41887259679436,9.288086853719095],[7.418586819993593,9.288078175870808]]]}},
{"type":"Feature","properties":{"fid":7,"id":"ict_building","name":"ICT","building_type":"service","status":"open"},"geometry":{"type":"Polygon","coordinates":[[[7.416720503249348,9.288487730656858],[7.416755397837074,9.288409464612387],[7.416741651484333,9.288399029138466],[7.416769144189814,9.288345808216652],[7.416801923954042,9.288360417882268],[7.416809325836287,9.288344764669084],[7.41687805759999,9.288379201737166],[7.416874885364743,9.288388593664235],[7.416943617128444,9.288421987180673],[7.416945731951945,9.288416769443943],[7.41699754512766,9.288443901674109],[7.416995430304162,9.288449119410435],[7.417026095244891,9.288466859713374],[7.417019750774396,9.288475208090917],[7.41702715265664,9.288484600015417],[7.417001774774657,9.288530516087111],[7.416984856186668,9.288524254804964],[7.416956306069438,9.288580606340279],[7.41684845007101,9.288527385446052],[7.41684950748276,9.288515906428584],[7.416817785130282,9.288500253222349],[7.416813555483285,9.288511732240327],[7.416780775719057,9.288493991939658],[7.416768086778066,9.288507558052016],[7.416720503249348,9.288487730656858]]]}},
{"type":"Feature","properties":{"fid":8,"id":"block_a_building","name":"Block A","building_type":"block","status":"open"},"geometry":{"type":"Polygon","coordinates":[[[7.415960224201612,9.289136816378521],[7.415999348436336,9.289202559720549],[7.41602366890657,9.289190037180163],[7.416088171023276,9.289306914206376],[7.416069137611789,9.289316306108574],[7.416083941376279,9.289345525358252],[7.416105089611262,9.289340307635273],[7.416131524904997,9.289396659039319],[7.415883033143915,9.289542755229812],[7.415822760674205,9.28943631372562],[7.415811129144964,9.289439444358562],[7.415764603027995,9.289355960803974],[7.415774119733737,9.289349699536576],[7.415728651028519,9.289269346595061],[7.415960224201612,9.289136816378521]]]}},
{"type":"Feature","properties":{"fid":9,"id":"block_b_building","name":"Block B","building_type":"block","status":"open"},"geometry":{"type":"Polygon","coordinates":[[[7.415760077443503,9.288790296036291],[7.41553051811766,9.288917555124192],[7.41557586316968,9.2890000637389],[7.415565943939551,9.289014048247939],[7.415612706024445,9.289090963037683],[7.415622625254573,9.289086767685955],[7.415689225799723,9.289200042165094],[7.41590744886256,9.289086767685955],[7.415897504154497,9.289049325798583],[7.415903258776262,9.289046486219062],[7.415864894631163,9.288977389776926],[7.415885994910967,9.288965084929643],[7.415824612278809,9.288849608649407],[7.41579775737724,9.288854341284591],[7.415760077443503,9.288790296036291]]]}},
{"type":"Feature","properties":{"fid":10,"id":"block_c_building","name":"Block C","building_type":"block","status":"open"},"geometry":{"type":"Polygon","coordinates":[[[7.415561527471311,9.288328858708045],[7.415604925602348,9.288398164006749],[7.415616761456266,9.288392713028697],[7.41568225318128,9.288497839019049],[7.415670417327363,9.288507183549997],[7.415710596664144,9.288577722767034],[7.415668405935349,9.288607307319689],[7.415656192829643,9.28859415862993],[7.415587355324763,9.288632508973688],[7.415595127301123,9.288648944834012],[7.415555157136999,9.288673050761094],[7.415542944031294,9.288662093521717],[7.415445239185661,9.288717975438958],[7.415451900879681,9.288735507019],[7.415420812974252,9.288755230045499],[7.415365298857415,9.288667572141451],[7.41534309321068,9.288684008000129],[7.415296461352535,9.288609498767936],[7.415317556716933,9.288590871457409],[7.415270924858791,9.288504309236682],[7.415303123046557,9.288484586196057],[7.415312005305251,9.28849663916546],[7.415409710150882,9.288435278589635],[7.415405269021539,9.288419938443997],[7.415444128903325,9.288398023949069],[7.415453011162017,9.288410076921449],[7.415521848666894,9.288366247928982],[7.415517407537551,9.288354194955094],[7.415561527471311,9.288328858708045]]]}},
{"type":"Feature","properties":{"fid":11,"id":"mph_building","name":"Multipurpose Hall (MPH)","building_type":"hall","status":"open"},"geometry":{"type":"Polygon","coordinates":[[[7.41576413802079,9.28749375228092],[7.416031716063948,9.287318435819627],[7.416061693687038,9.28736774358323],[7.416056142275356,9.28736774358323],[7.416158288250336,9.287544155747311],[7.416166060226694,9.287538677110009],[7.416213802367174,9.287614282297174],[7.415947334606352,9.287787407157056],[7.415887379360169,9.287693174649],[7.415879607383811,9.287698653283881],[7.415814100725943,9.287593463479151],[7.415820762419965,9.287582506206004],[7.41576413802079,9.28749375228092]]]}},
{"type":"Feature","properties":{"fid":12,"id":"block_d_building","name":"Block D","building_type":"block","status":"open"},"geometry":{"type":"Polygon","coordinates":[[[7.415375539202926,9.287857533658238],[7.415447707554816,9.287819183229647],[7.415458810378183,9.287825757589129],[7.415483236589592,9.287813704596649],[7.415495449695297,9.287826853315702],[7.415535419859419,9.287803843057034],[7.415529868447735,9.287785215703673],[7.415560956353165,9.287770971256316],[7.415555404941479,9.287757822535164],[7.415623132164023,9.287712897734181],[7.415609808775981,9.287681121651952],[7.415620911599349,9.287673451562709],[7.41559648538794,9.287628526750902],[7.415577610588215,9.287636196841131],[7.415454369248835,9.28742472143476],[7.415466582354541,9.287417051339897],[7.415446597272478,9.287379796591054],[7.41536110553255,9.287433487257248],[7.415343341015162,9.287410476972743],[7.415270062380936,9.287458688995679],[7.415283385768977,9.287480603549369],[7.415194563182036,9.28753429420011],[7.41521343798176,9.287569357477782],[7.415230092216811,9.287561687386093],[7.415354443838529,9.287772066983054],[7.415341120450487,9.287785215703673],[7.415375539202926,9.287857533658238]]]}},
{"type":"Feature","properties":{"fid":13,"id":"auditorium_building","name":"Auditorium","building_type":"hall","status":"open"},"geometry":{"type":"Polygon","coordinates":[[[7.417200511838516,9.28672554412849],[7.417095526706832,9.287094651371682],[7.417100447884879,9.287115696948394],[7.41746461506041,9.287222543702962],[7.417569600192095,9.28684048546082],[7.417485940165284,9.286812964300175],[7.417481018987234,9.286834009893804],[7.417418684065297,9.28681943986758],[7.417423605243346,9.286791918705282],[7.417338304823851,9.286767635324985],[7.417333383645804,9.286790299813315],[7.41727268911655,9.286772492001178],[7.417275969901914,9.2867498275117],[7.417200511838516,9.28672554412849]]]}},
{"type":"Feature","properties":{"fid":14,"id":"library_building","name":"Library","building_type":"service","status":"open"},"geometry":{"type":"Polygon","coordinates":[[[7.416868237590282,9.286367199494789],[7.416952619047875,9.28639130557886],[7.416965942435915,9.286360625107934],[7.417065867846224,9.286383635461378],[7.417055875305192,9.286414315930294],[7.417146918456804,9.286446092127406],[7.417128043657081,9.286518410358367],[7.417153580150824,9.286529367664784],[7.417131374504091,9.286615930373458],[7.41710472772801,9.286608260260891],[7.417081411798938,9.286698110140378],[7.416989258364985,9.28667290834724],[7.416980376106293,9.286700301600568],[7.416882671260659,9.286678386998076],[7.416877119848974,9.286664142505721],[7.416883781542994,9.286636749249563],[7.416794958956056,9.286615930373458],[7.416868237590282,9.286367199494789]]]}},
{"type":"Feature","properties":{"fid":15,"id":"clinic_building","name":"Clinic","building_type":"service","status":"open"},"geometry":{"type":"Polygon","coordinates":[[[7.416084473614321,9.285997895685989],[7.416188037336108,9.286033054733254],[7.416182237767689,9.286042866559768],[7.416187208826334,9.286057584299021],[7.416207093060918,9.286067396124851],[7.416193008394755,9.286106643425409],[7.416183894787238,9.286101737513079],[7.416149925886491,9.286199855746618],[7.416159868003783,9.286205579309394],[7.416140812278972,9.286270173797089],[7.416116785495519,9.286259544325251],[7.416101043809807,9.286315962287487],[7.416003279656442,9.286284891526796],[7.416007422205312,9.28627099144876],[7.415982566912083,9.286260361976941],[7.416043876635381,9.286056766646857],[7.41601653581283,9.286043684211966],[7.41602647793012,9.286007707513484],[7.41607618851658,9.286017519340712],[7.416084473614321,9.285997895685989]]]}},
{"type":"Feature","properties":{"fid":16,"id":"hostel_m_building","name":"Hostel M","building_type":"boys_hostel","status":"open"},"geometry":{"type":"Polygon","coordinates":[[[7.410456249718574,9.286947303746713],[7.410438469822934,9.286921168123715],[7.410431013234963,9.286926074024574],[7.410407814961285,9.286891732717134],[7.410417757078577,9.286884373865101],[7.410400358373314,9.286862297308078],[7.410393730295121,9.286866385559479],[7.410363903943248,9.286832861896547],[7.410372189040991,9.286825503043278],[7.410358104374826,9.286804244132966],[7.410348990767309,9.286809967685869],[7.410325792493627,9.286778896968992],[7.410333249081599,9.286770720464085],[7.410315021866563,9.286747008598796],[7.41030673676882,9.286751914502092],[7.410282709985367,9.286715120225701],[7.410290166573335,9.286709396671251],[7.410266139789881,9.286681596548291],[7.410259511711685,9.286687320103201],[7.410206265603022,9.28661298996901],[7.410231188626447,9.286587891632889],[7.410228136827661,9.286584377865685],[7.410261706614314,9.286556769693602],[7.410267810211887,9.286562291328194],[7.410288623635783,9.286546911616933],[7.410282311180361,9.286543018040616],[7.410322553083682,9.286509533282508],[7.410327287425251,9.286517320435841],[7.410376208954781,9.286465925220647],[7.410369896499357,9.28645813806617],[7.410388833865627,9.286436334032716],[7.410397513491835,9.286441006325713],[7.410401458776474,9.286436334032716],[7.410395935377978,9.286430883024144],[7.410424341427382,9.28639661953973],[7.410429864825878,9.286402070548835],[7.41044406785058,9.286383381374398],[7.410439333509012,9.286376372933725],[7.410470895786128,9.286341330728266],[7.410477208241552,9.286347560453942],[7.41049298938011,9.286329649992336],[7.410484309753902,9.286323420266346],[7.410514293917162,9.286290714203085],[7.410519817315658,9.286295386498027],[7.410537176568072,9.286277476033755],[7.410531653169575,9.286272025022711],[7.41056400450362,9.286232310511098],[7.410568738845189,9.286238540238706],[7.410581363756036,9.286225302067402],[7.410638964911771,9.28627280373858],[7.410643699253338,9.286266574011577],[7.410676050587382,9.286289156771424],[7.410668949075031,9.28629772264547],[7.410736018913902,9.286350675316735],[7.410526129771082,9.286597528105105],[7.410540332795785,9.286621668273813],[7.41054980147892,9.286641914865641],[7.410548223365064,9.286655153021204],[7.410538754681928,9.286675399611097],[7.410524551657227,9.286681629330824],[7.410615293203936,9.286814789563607],[7.410608191691585,9.286820240566207],[7.410617660374719,9.286845159434169],[7.410456249718574,9.286947303746713]]]}},
{"type":"Feature","properties":{"fid":17,"id":"senate_building","name":"Senate","building_type":"service","status":"open"},"geometry":{"type":"Polygon","coordinates":[[[7.418700925566083,9.285332771109895],[7.418711569366872,9.285421443399457],[7.418724582505399,9.285420729920302],[7.41872711283789,9.285465679104366],[7.418717352983995,9.28546888976015],[7.418723136601116,9.285528108517111],[7.418731590349036,9.285528922795018],[7.418759411452779,9.285526482212791],[7.418761266193028,9.285533803959416],[7.418926338075238,9.285520380757157],[7.418907790672741,9.285315371786016],[7.418700925566083,9.285332771109895]]]}},
{"type":"Feature","properties":{"fid":18,"id":"faculty_law_building","name":"Faculty of Law","building_type":"faculty","status":"open"},"geometry":{"type":"Polygon","coordinates":[[[7.419502906538892,9.289272132604106],[7.419227854352613,9.289259448251535],[7.419226569062022,9.289283548521032],[7.419116034071276,9.289283548521032],[7.419114748780686,9.2893533124497],[7.419152022207799,9.289354580884641],[7.419149451626618,9.289471276879294],[7.419108322327737,9.289475082182815],[7.419108322327737,9.289551188244513],[7.419146881045437,9.289554993547165],[7.419143025173669,9.289672957908836],[7.419108322327737,9.289672957908836],[7.419104466455965,9.289741453326419],[7.419216286737302,9.289746527060522],[7.419215001446713,9.289776969463592],[7.419514474154202,9.289788385364066],[7.419518330025973,9.289660273570778],[7.419465633111779,9.289652662967722],[7.419464347821188,9.289619683685904],[7.419285692429166,9.289613341515967],[7.419289548300935,9.289562604152341],[7.419301115916248,9.289561335718156],[7.419304971788018,9.289482692789727],[7.419290833591528,9.289481424355255],[7.419293404172706,9.289430686972516],[7.419469488983549,9.289439566015028],[7.41947334485532,9.289376144277881],[7.419502906538892,9.289376144277881],[7.419502906538892,9.289272132604106]]]}},
{"type":"Feature","properties":{"fid":19,"id":"nlt_building","name":"New Lecture Theatre (NLT)","building_type":"hall","status":"open"},"geometry":{"type":"Polygon","coordinates":[[[7.416578607310835,9.28972707006854],[7.416764518481526,9.289603726930613],[7.416772329875251,9.289617603035797],[7.416845756976281,9.289569807560069],[7.416841070140046,9.289560556822076],[7.416894187617388,9.289528179237184],[7.416781703547722,9.289323121130026],[7.416719984020539,9.289359802335763],[7.416710392984266,9.289356962758752],[7.416635582901322,9.289410914717921],[7.41664421483397,9.289420379973054],[7.416523367776909,9.289497995055534],[7.416519531362397,9.289493262429048],[7.416460066937493,9.289534909539945],[7.416486921839065,9.28957844969605],[7.416475412595536,9.289586021896556],[7.416537754331321,9.28968919311218],[7.416553099989361,9.289686353537842],[7.416578607310835,9.28972707006854]]]}},
{"type":"Feature","properties":{"fid":20,"id":"wokshop_building","name":"Workshop","building_type":"service","status":"open"},"geometry":{"type":"Polygon","coordinates":[[[7.41553852911925,9.286927647526682],[7.415389740667317,9.286759832381973],[7.415267875840017,9.286903873719405],[7.415297633530405,9.286933241363453],[7.415293382431779,9.286947225954995],[7.415334476385169,9.286986382808342],[7.415342978582421,9.286975195136403],[7.415365651108431,9.287005961233374],[7.415354314845429,9.287012953527762],[7.415413830226201,9.287074485712367],[7.41553852911925,9.286927647526682]]]}},
{"type":"Feature","properties":{"fid":21,"id":"hostel_a_building","name":"Hostel A","building_type":"girls_hostel","status":"open"},"geometry":{"type":"Polygon","coordinates":[[[7.412963028711181,9.286630834422917],[7.412946666735804,9.286557436572185],[7.412930304760427,9.286558904529345],[7.412918405141969,9.28649284645082],[7.412937742021961,9.286489910535929],[7.412924354951199,9.286431192232955],[7.413038888778838,9.28641064082459],[7.413040376231146,9.286415044697913],[7.413079049991127,9.286409172866806],[7.413082024895743,9.286401833077777],[7.413193583818767,9.286384217583493],[7.413206970889533,9.286460551385675],[7.413223513271162,9.286458393959762],[7.413233768031477,9.286519116115869],[7.41322193561573,9.286521451583202],[7.413232979203758,9.286593851062783],[7.413120176840301,9.286610977819207],[7.413119388012586,9.286601635952172],[7.413072847177313,9.286608642352471],[7.413071269521879,9.286615648752635],[7.412963028711181,9.286630834422917]]]}},
{"type":"Feature","properties":{"fid":22,"id":"hostel_b_building","name":"Hostel B","building_type":"girls_hostel","status":"open"},"geometry":{"type":"Polygon","coordinates":[[[7.41291350397858,9.286360304300748],[7.412900882735115,9.28629958211712],[7.41288195086992,9.28630036060672],[7.412869329626457,9.286224847107446],[7.41288668383622,9.286220954658585],[7.412876429075905,9.286157896981072],[7.412989231439363,9.286138434732631],[7.412992386750227,9.286144662652255],[7.413036561102351,9.286139213222594],[7.413036561102351,9.286131428322928],[7.413151729948959,9.286115080033081],[7.413162773536992,9.286180473187907],[7.413180127746752,9.286179694698042],[7.413189593679352,9.286248201799681],[7.41317618360817,9.286248201799681],[7.41318564954077,9.28631904435661],[7.413072847177311,9.286336949615983],[7.413070480694159,9.286327607741642],[7.413025517514321,9.286333835657896],[7.413025517514321,9.286343956021577],[7.41291350397858,9.286360304300748]]]}},
{"type":"Feature","properties":{"fid":23,"id":"hostel_c_building","name":"Hostel C","building_type":"boys_hostel","status":"open"},"geometry":{"type":"Polygon","coordinates":[[[7.413046137127057,9.285185185077816],[7.413046137127057,9.284861633918208],[7.413093357835217,9.284860302431342],[7.413094706998305,9.284833672692864],[7.413166212642091,9.284828346744925],[7.413168910968271,9.284902910008693],[7.413182402599173,9.284900247035257],[7.413182402599173,9.284874948786641],[7.413229623307331,9.284873617299818],[7.413228274144243,9.285001440011484],[7.413182402599173,9.285005434470474],[7.413182402599173,9.284957500959605],[7.413168910968271,9.284957500959605],[7.413170260131362,9.285090649584708],[7.413182402599173,9.285089318098702],[7.413181053436083,9.285045379057847],[7.413229623307331,9.285044047571677],[7.413230972470422,9.285166544278377],[7.413183751762264,9.285163881306946],[7.413185100925355,9.285138583077359],[7.413168910968271,9.285137251591538],[7.413167561805181,9.285209151818501],[7.413092008672126,9.285213146275119],[7.413090659509035,9.285183853592176],[7.413046137127057,9.285185185077816]]]}},
{"type":"Feature","properties":{"fid":24,"id":"hostel_d_building","name":"Hostel D","building_type":"boys_hostel","status":"open"},"geometry":{"type":"Polygon","coordinates":[[[7.412818128564802,9.28520782033295],[7.412819477727892,9.28513059416237],[7.41280733526008,9.28513059416237],[7.412804636933898,9.285159886849764],[7.412756067062649,9.285158555364028],[7.41276011455192,9.285036058654532],[7.41281138274935,9.285037390140737],[7.41280733526008,9.285083992154652],[7.412819477727892,9.285083992154652],[7.412826223543344,9.284950843527021],[7.412812731912441,9.284950843527021],[7.412810033586259,9.284997445552449],[7.412761463715009,9.284994782579734],[7.412764162041189,9.284866959865637],[7.412812731912441,9.284869622839327],[7.41281138274935,9.284896252575072],[7.412824874380252,9.284897584061808],[7.412828921869523,9.284825683770924],[7.412907173328759,9.284827015257928],[7.412907173328759,9.284857639457583],[7.412951695710738,9.284857639457583],[7.412943600732196,9.285183853592176],[7.412897729187128,9.285182522106529],[7.412895030860946,9.285210483304043],[7.412818128564802,9.28520782033295]]]}},
{"type":"Feature","properties":{"fid":25,"id":"hostel_e_building","name":"Hostel E","building_type":"boys_hostel","status":"open"},"geometry":{"type":"Polygon","coordinates":[[[7.412156197111172,9.284624098364048],[7.412180768311886,9.284304791807463],[7.412224822616876,9.28430599950722],[7.412226046347571,9.284278222411771],[7.412303141381301,9.284289091710251],[7.412301917650605,9.284360345991947],[7.412312931226854,9.284361553691515],[7.412315378688243,9.284337399699423],[7.412366775377396,9.284339815098708],[7.412354538070453,9.284460585041671],[7.412308036304075,9.284460585041671],[7.412310483765464,9.28441469246825],[7.412297022727829,9.28441227706948],[7.412299470189218,9.284424354063152],[7.412301917650605,9.284425561762497],[7.412301917650605,9.284466623537726],[7.412354538070453,9.284471454334499],[7.412342300763513,9.284620001302663],[7.412295798997137,9.284617585905314],[7.412297022727829,9.2845922242321],[7.412283561690194,9.284589808834557],[7.412279890498112,9.284665893849205],[7.412201571733686,9.284659855356583],[7.412201571733686,9.284627247494621],[7.412156197111172,9.284624098364048]]]}},
{"type":"Feature","properties":{"fid":26,"id":"hostel_f_building","name":"Hostel F","building_type":"boys_hostel","status":"open"},"geometry":{"type":"Polygon","coordinates":[[[7.412149744227597,9.285072658456158],[7.412153771292679,9.284740804114378],[7.412202096073665,9.284740804114378],[7.412203102839935,9.284713977552068],[7.412279617076496,9.284714971128484],[7.412279617076496,9.284789489351853],[7.412290691505472,9.284789489351853],[7.412291698271743,9.284770611403435],[7.412339016286458,9.284770611403435],[7.412340023052727,9.28489381483795],[7.412290691505472,9.284891827686124],[7.412290691505472,9.284845129614974],[7.412275590011415,9.284846123191018],[7.412275590011415,9.284858046103361],[7.412280623842766,9.284858046103361],[7.412281630609037,9.284900769869253],[7.412281630609037,9.284979262355812],[7.412287671206659,9.284978268780142],[7.412291698271743,9.284930577144703],[7.412339016286458,9.284931570720506],[7.412332975688835,9.28505974197568],[7.412287671206659,9.285058748400237],[7.41228666444039,9.285030928286741],[7.412273576478872,9.285029934711218],[7.412272569712602,9.285105446442927],[7.412199075774852,9.285106440018238],[7.412198069008581,9.285075639182358],[7.412149744227597,9.285072658456158]]]}},
{"type":"Feature","properties":{"fid":27,"id":"hostel_g_building","name":"Hostel G","building_type":"boys_hostel","status":"open"},"geometry":{"type":"Polygon","coordinates":[[[7.412219028546791,9.285519685356151],[7.412152919555365,9.28520146044772],[7.41237418230217,9.285160184392399],[7.412438942130505,9.285479740822838],[7.412219028546791,9.285519685356151]]]}},
{"type":"Feature","properties":{"fid":28,"id":"hostel_h_building","name":"Hostel H","building_type":"boys_hostel","status":"open"},"geometry":{"type":"Polygon","coordinates":[[[7.412200515807227,9.285772301958424],[7.412163683654863,9.285547214615981],[7.412479590192449,9.285495486448527],[7.412506505996102,9.285720573824197],[7.412200515807227,9.285772301958424]]]}},
{"type":"Feature","properties":{"fid":29,"id":"new_kelson_building","name":"New Kelson","building_type":"girls_hostel","status":"open"},"geometry":{"type":"Polygon","coordinates":[[[7.418702306129208,9.280518757486918],[7.419392994403274,9.280413411935461],[7.419420203335281,9.280661283770865],[7.419112533104109,9.280708792519309],[7.419114626098877,9.280739776482218],[7.419043464276703,9.280756301261313],[7.419039278287161,9.280717054909685],[7.418727422066448,9.280762498053276],[7.418714864097829,9.280681939749243],[7.418729515061219,9.280677808553667],[7.418716957092598,9.280595184631895],[7.418706492118749,9.2805931190336],[7.418702306129208,9.280518757486918]]]}},
{"type":"Feature","properties":{"fid":30,"id":"hostel_s_building","name":"Hostel S","building_type":"boys_hostel","status":"open"},"geometry":{"type":"Polygon","coordinates":[[[7.417088103741493,9.279020271230127],[7.416709675000758,9.278915966845648],[7.416593759890984,9.279363466082668],[7.41674035841217,9.279400477272192],[7.416747176948039,9.279383654004711],[7.416938095952372,9.279430759151621],[7.41697218863172,9.279299537655202],[7.416767632555647,9.279235609216075],[7.416805134502925,9.279084199708505],[7.417054011062147,9.279138034207573],[7.417088103741493,9.279020271230127]]]}},
{"type":"Feature","properties":{"fid":31,"id":"hostel_r_building","name":"Hostel R","building_type":"boys_hostel","status":"open"},"geometry":{"type":"Polygon","coordinates":[[[7.416977947669965,9.279409282928496],[7.417008476248652,9.279283745100024],[7.417247616781711,9.279338981750087],[7.417265425119278,9.279288766614027],[7.417242528685263,9.279278723585952],[7.417257792974606,9.2792234869264],[7.417278145360399,9.2792234869264],[7.41729086560152,9.279183314804893],[7.417181471527885,9.279150674952781],[7.417222176299472,9.279025137031734],[7.417463860880753,9.279082884480998],[7.417339202517776,9.279534820712025],[7.417189103672558,9.279494648626184],[7.417184015576108,9.279472051825877],[7.416977947669965,9.279409282928496]]]}},
{"type":"Feature","properties":{"fid":32,"id":"paetos_building","name":"Paetos","building_type":"girls_hostel","status":"open"},"geometry":{"type":"Polygon","coordinates":[[[7.41816224487491,9.283160165649834],[7.418159937348177,9.283180661398292],[7.418134554554104,9.283178384092967],[7.418132247027372,9.283244425941376],[7.4181137868135,9.283244425941376],[7.418104556706564,9.283415223767486],[7.418127631973903,9.283415223767486],[7.418127631973903,9.283485820177969],[7.418155322294709,9.283483542874627],[7.418155322294709,9.283497206694461],[7.418976801811945,9.283535920847754],[7.418976801811945,9.283519979726325],[7.419016029766419,9.283522257029432],[7.419018337293154,9.283463047143883],[7.419043720087226,9.283463047143883],[7.41905295019416,9.283283140122585],[7.419029874926821,9.283278585513255],[7.419016029766419,9.28321937558654],[7.418992954499082,9.283212543671283],[7.418990646972349,9.283198879840356],[7.418665285702881,9.283185216008894],[7.418660670649412,9.283173829482269],[7.418496836251311,9.283171552176899],[7.41849452872458,9.283178384092967],[7.41816224487491,9.283160165649834]]]}},
{"type":"Feature","properties":{"fid":33,"id":"unidentified_one_building","name":"Unidentified one","building_type":"girls_hostel","status":"open"},"geometry":{"type":"Polygon","coordinates":[[[7.412038242194519,9.286527479466052],[7.412047756925427,9.286605282545574],[7.412151059718138,9.286591868222752],[7.412148341223594,9.286583819628813],[7.412187759394496,9.286577112467054],[7.412186400147223,9.286587843925805],[7.412284265950843,9.286577112467054],[7.412281547456297,9.28654760095379],[7.41234271358356,9.286540893791342],[7.412312810143566,9.286292728690379],[7.412247566274486,9.286300777291007],[7.412265236489026,9.28650333367924],[7.412038242194519,9.286527479466052]]]}},
{"type":"Feature","properties":{"fid":34,"id":"unidentified_two_building","name":"Unidentified two","building_type":"girls_hostel","status":"open"},"geometry":{"type":"Polygon","coordinates":[[[7.412036882947249,9.286496626515941],[7.41202600896907,9.286390653318778],[7.412032805205432,9.286390653318778],[7.412028727463612,9.286351751757351],[7.412021931227252,9.286353093190572],[7.412011057249072,9.286253827118079],[7.412070864129062,9.286243095649095],[7.412068145634517,9.286213584107703],[7.412170089179954,9.286206876938861],[7.412168729932682,9.286213584107703],[7.412201351867222,9.286209559806412],[7.412201351867222,9.286201511203689],[7.412307373154477,9.286198828336072],[7.412314169390839,9.286263217153165],[7.412083097354515,9.286286021523047],[7.412104845310875,9.28648857791981],[7.412036882947249,9.286496626515941]]]}},
{"type":"Feature","properties":{"fid":35,"id":"unidentified_three_building","name":"unidentified three","building_type":"girls_hostel","status":"open"},"geometry":{"type":"Polygon","coordinates":[[[7.411969474171779,9.286056275959503],[7.411957173354735,9.285987852668105],[7.41193592648893,9.285991163472834],[7.411924743927982,9.285927154575846],[7.411942636025498,9.285923843770513],[7.411930335208456,9.285852109647246],[7.41204439733014,9.28583665921877],[7.41204439733014,9.285844384433092],[7.412085772805651,9.28583665921877],[7.412085772805651,9.285830037606361],[7.412197598415147,9.285812379972654],[7.412209899232191,9.28587197448285],[7.412228909585803,9.28586976727895],[7.412240092146754,9.285935983389919],[7.412224436561424,9.285938190593402],[7.412233382610185,9.286006613894498],[7.412120438744596,9.286026478721345],[7.412119320488499,9.286018753511035],[7.412076826756893,9.286025375119882],[7.412076826756893,9.286036411134345],[7.411969474171779,9.286056275959503]]]}},
{"type":"Feature","properties":{"fid":36,"id":"unidentified_four_building","name":"Unidentified four","building_type":"girls_hostel","status":"open"},"geometry":{"type":"Polygon","coordinates":[[[7.411908199931807,9.285801228382484],[7.411889646206538,9.285591360761527],[7.412115145329047,9.285571641649746],[7.412132271844681,9.285784326296858],[7.411908199931807,9.285801228382484]]]}},
{"type":"Feature","properties":{"fid":37,"id":"unidentified_resturant_building","name":"Unidentified Resturant","building_type":"resturant","status":"open"},"geometry":{"type":"Polygon","coordinates":[[[7.413545132321478,9.286700022892934],[7.413581831997837,9.28660209835099],[7.413749019412354,9.286670511390023],[7.413710960488723,9.286764411617925],[7.413545132321478,9.286700022892934]]]}},
{"type":"Feature","properties":{"fid":38,"id":"unidentified_resturant_two_building","name":"second Unidentified Resturant","building_type":"resturant","status":"open"},"geometry":{"type":"Polygon","coordinates":[[[7.414269611117724,9.286924041947611],[7.414151356605015,9.287025990691541],[7.414351165954074,9.28723122952027],[7.41446398347769,9.287122573684746],[7.414269611117724,9.286924041947611]]]}},
{"type":"Feature","properties":{"fid":39,"id":"unidentified_five_building","name":"Unidentified five","building_type":"girls_hostel","status":"open"},"geometry":{"type":"Polygon","coordinates":[[[7.418459345392715,9.282453230188159],[7.418459345392715,9.282611392397506],[7.418903780079016,9.282622806162431],[7.418902127905461,9.282635850464745],[7.41896160615344,9.282635850464745],[7.418966562674107,9.282449969110926],[7.418903780079016,9.282449969110926],[7.418903780079016,9.28246138288111],[7.418731954029293,9.282459752342529],[7.418731954029293,9.2824483385723],[7.418647693177987,9.282443446956371],[7.418646041004433,9.282454860726762],[7.418459345392715,9.282453230188159]]]}},
{"type":"Feature","properties":{"fid":40,"id":"unidentified_six_building","name":"Unidentified Six","building_type":"girls_hostel","status":"open"},"geometry":{"type":"Polygon","coordinates":[[[7.418459765049518,9.282263388123949],[7.418461232925157,9.282421291464869],[7.418647653131513,9.28242274011904],[7.418647653131513,9.282437226660459],[7.418729854167387,9.282438675314568],[7.418729854167387,9.282428534735676],[7.418907467119898,9.282428534735676],[7.418907467119898,9.282443021276855],[7.41896471426988,9.282445918585017],[7.418966182145519,9.282257593504582],[7.418904531368616,9.282254696194858],[7.418903063492975,9.282269182743217],[7.418459765049518,9.282263388123949]]]}},
{"type":"Feature","properties":{"fid":41,"id":"unidentified_seven_building","name":"Unidentified seven","building_type":"faculty","status":"open"},"geometry":{"type":"Polygon","coordinates":[[[7.41571598848196,9.285528309550557],[7.415729000807096,9.285712375562619],[7.415952379055264,9.285701674052937],[7.415941535450985,9.285528309550557],[7.41571598848196,9.285528309550557]]]}},
{"type":"Feature","properties":{"fid":42,"id":"unidentified_eight_building","name":"Unidentified eight","building_type":"faculty","status":"open"},"geometry":{"type":"Polygon","coordinates":[[[7.415711651040248,9.285068144097435],[7.415713819761104,9.284787763920468],[7.415826593245616,9.284783483305342],[7.41582442452476,9.284721414380119],[7.415878642546159,9.284721414380119],[7.415874305104448,9.284580154026566],[7.415963222659545,9.284569452482312],[7.415961053938688,9.284588715261737],[7.416065152539776,9.28458229433538],[7.4160738274232,9.284832710376149],[7.416013103239232,9.284839131297918],[7.416015271960087,9.284961128789183],[7.415915510800712,9.284961128789183],[7.415913342079857,9.285066003791595],[7.415711651040248,9.285068144097435]]]}},
{"type":"Feature","properties":{"fid":43,"id":"unidentified_nine_building","name":"Unidentified nine","building_type":"faculty","status":"open"},"geometry":{"type":"Polygon","coordinates":[[[7.417301155143094,9.285124185701843],[7.417301155143094,9.285089498304028],[7.417223327613184,9.285089498304028],[7.417225838178666,9.284923494281244],[7.417266007226361,9.284925971953804],[7.417271028357324,9.284908628245516],[7.417117883862984,9.284908628245516],[7.417117883862984,9.284836775730605],[7.417090267642696,9.284836775730605],[7.417090267642696,9.284779789242796],[7.417120394428467,9.284779789242796],[7.417120394428467,9.284779789242796],[7.417112862732022,9.284698026004964],[7.417572296215035,9.284685637633931],[7.417571724241669,9.284767008757424],[7.417588678205318,9.284765487680714],[7.417590219474739,9.284823288591065],[7.417574806780513,9.284823288591065],[7.417571724241669,9.284896300253672],[7.417428386185366,9.284894779177522],[7.417426844915942,9.284919116395118],[7.417470000459775,9.284920637471162],[7.417470000459775,9.28508491364501],[7.4173898544498,9.28508491364501],[7.417391395719222,9.285118377300609],[7.417301155143094,9.285124185701843]]]}},
{"type":"Feature","properties":{"fid":44,"id":"unidentified_ten_building","name":"Unidentified ten","building_type":"girls_hostel","status":"open"},"geometry":{"type":"Polygon","coordinates":[[[7.418609883907261,9.282682860255694],[7.418608676282338,9.282767478790108],[7.41854829503623,9.282767478790108],[7.41854829503623,9.282825877485047],[7.418515689163327,9.28282826110504],[7.418515689163327,9.282940291226517],[7.418545879786383,9.282940291226517],[7.418547087411307,9.282991539036109],[7.418606261032494,9.282995114464406],[7.418607468657417,9.283035635982547],[7.418673888028136,9.283038019601117],[7.418675095653059,9.28302014246146],[7.418692002401972,9.283021334270799],[7.418692002401972,9.283040403219671],[7.418746345523471,9.283040403219671],[7.418748760773313,9.28302014246146],[7.418804311519737,9.283022526080133],[7.418801896269892,9.283040403219671],[7.418856239391392,9.283042786838205],[7.418858654641235,9.283022526080133],[7.4189492265104,9.283027293317431],[7.418948018885477,9.283043978647468],[7.419004777256823,9.283045170456726],[7.419004777256823,9.283026101508115],[7.419022891630655,9.283026101508115],[7.419022891630655,9.283042786838205],[7.419079650001999,9.28304636226598],[7.419083272876764,9.283027293317431],[7.419098972000755,9.283028485126746],[7.419097764375831,9.283043978647468],[7.419172637121009,9.283047554075232],[7.419172637121009,9.282691202929009],[7.419101387250599,9.282692394739465],[7.419100179625675,9.282706696464636],[7.419082065251843,9.282706696464636],[7.419082065251843,9.282690011118548],[7.419025306880499,9.282690011118548],[7.419025306880499,9.282704312843817],[7.41900960775651,9.282705504654226],[7.419008400131587,9.282691202929009],[7.418952849385168,9.282690011118548],[7.418952849385168,9.282705504654226],[7.418861069891079,9.282706696464636],[7.418859862266157,9.282686435687136],[7.418805519144659,9.282686435687136],[7.418805519144659,9.282704312843817],[7.418752383648082,9.2827031210334],[7.418751176023159,9.282685243876658],[7.418694417651817,9.28268405206618],[7.418694417651817,9.2827031210334],[7.418673888028136,9.282701929222979],[7.418673888028136,9.28268405206618],[7.418609883907261,9.282682860255694]]]}},
{"type":"Feature","properties":{"fid":45,"id":"unidentified_eleven_building","name":"Unidentified eleven","building_type":"girls_hostel","status":"open"},"geometry":{"type":"Polygon","coordinates":[[[7.416653917603298,9.282475947959048],[7.416679233225243,9.28269119566448],[7.416690917358449,9.282693117518397],[7.416690917358449,9.28272771088711],[7.416967441844321,9.282673898978748],[7.416973283910925,9.282693117518397],[7.417033651932488,9.28268543010266],[7.417031704576952,9.282666211562594],[7.417286808151948,9.282633540042058],[7.417282913440879,9.282604712227288],[7.41731017641836,9.282598946664047],[7.417282913440879,9.282366402201074],[7.416653917603298,9.282475947959048]]]}},
{"type":"Feature","properties":{"fid":46,"id":"sports_building","name":"Sports","building_type":"sport","status":"open"},"geometry":{"type":"Polygon","coordinates":[[[7.416097207338476,9.289738529660649],[7.415940164573215,9.289903732844456],[7.416071825012701,9.290017632070796],[7.416023082637231,9.290075134578764],[7.416112163530329,9.290184057572782],[7.416091994271516,9.290206726821085],[7.41620684699532,9.290305697424543],[7.416225335482568,9.290283581091003],[7.416279680429929,9.290328919573259],[7.41623766114073,9.290400244734689],[7.416401256240007,9.290501979823532],[7.416719737934891,9.290000859299436],[7.416436992614736,9.289824847636106],[7.416331493289429,9.289947253838195],[7.416233122296913,9.289866353192183],[7.416233835130193,9.289858614868541],[7.416097207338476,9.289738529660649]]]}},
{"type":"Feature","properties":{"fid":48,"id":"old_football_field_building","name":"Old Football Field","building_type":"sport","status":"open"},"geometry":{"type":"Polygon","coordinates":[[[7.417331539342332,9.289493412736171],[7.41705442700916,9.290280585294282],[7.417926956382526,9.290727757649689],[7.418215302999475,9.289947977386959],[7.417331539342332,9.289493412736171]]]}},
{"type":"Feature","properties":{"fid":49,"id":"new_football_field_building","name":"New Football Field","building_type":"sport","status":"open"},"geometry":{"type":"Polygon","coordinates":[[[7.417163484308503,9.290550343217671],[7.416673622352477,9.290934852045117],[7.417123765771526,9.291631073265284],[7.417621193163165,9.291226033206383],[7.417163484308503,9.290550343217671]]]}},
{"type":"Feature","properties":{"fid":50,"id":"munchbox_building","name":"MunchBox","building_type":"resturant","status":"open"},"geometry":{"type":"Polygon","coordinates":[[[7.414814904300853,9.287595685194654],[7.414842848285937,9.28763291503156],[7.414760413529941,9.287688070338238],[7.414726880747843,9.28764256721086],[7.414757619131433,9.287612231789323],[7.414772988323229,9.287628778383214],[7.414814904300853,9.287595685194654]]]}},
{"type":"Feature","properties":{"fid":51,"id":"software_building_building","name":"Software Building","building_type":"faculty","status":"open"},"geometry":{"type":"Polygon","coordinates":[[[7.417210057577669,9.287264573255355],[7.417091568545157,9.287716514153816],[7.417318939391327,9.287782883047855],[7.417437428423839,9.287334102662294],[7.417210057577669,9.287264573255355]]]}},
{"type":"Feature","properties":{"fid":52,"id":"unidentified_shop_building","name":"Unidentified Shop","building_type":"service","status":"open"},"geometry":{"type":"Polygon","coordinates":[[[7.418170437863234,9.280417847005015],[7.418222811877278,9.280420887504105],[7.418219731052923,9.280583554167261],[7.41816119539017,9.280578993420724],[7.418170437863234,9.280417847005015]]]}},
{"type":"Feature","properties":{"fid":53,"id":"chill_zone1_building","name":"Chill Zone","building_type":"service","status":"open"},"geometry":{"type":"Polygon","coordinates":[[[7.416045095049923,9.288382013322918],[7.416074981511311,9.288420583187561],[7.416032450777798,9.288448943379443],[7.416007162233546,9.288410373517921],[7.416045095049923,9.288382013322918]]]}},
{"type":"Feature","properties":{"fid":54,"id":"chill_zone2_building","name":"Chill zone","building_type":"service","status":"open"},"geometry":{"type":"Polygon","coordinates":[[[7.415816091754818,9.288531720780348],[7.415780923630079,9.288555423122242],[7.415802367608578,9.28859013011998],[7.415840109010736,9.288566427780433],[7.415816091754818,9.288531720780348]]]}},
{"type":"Feature","properties":{"fid":55,"id":"chill_zone3_building","name":"Chill zone","building_type":"service","status":"open"},"geometry":{"type":"Polygon","coordinates":[[[7.415948353823289,9.288756003118555],[7.415971227400354,9.288794700794002],[7.415928747900089,9.288822111644855],[7.415906691236493,9.288780995367766],[7.415948353823289,9.288756003118555]]]}},
{"type":"Feature","properties":{"fid":56,"id":"chill_zone4_building","name":"Chill Zone","building_type":"service","status":"open"},"geometry":{"type":"Polygon","coordinates":[[[7.416187123396437,9.28860998815421],[7.416151503329711,9.28863054934819],[7.416173681861823,9.288675651317849],[7.416213334388933,9.288651110540963],[7.416187123396437,9.28860998815421]]]}},
{"type":"Feature","properties":{"fid":57,"id":"dry_cleaner_building","name":"Dry Cleaner","building_type":"service","status":"open"},"geometry":{"type":"Polygon","coordinates":[[[7.411722474884578,9.286010392480236],[7.411667299878936,9.286019467804314],[7.411677645192496,9.286089801557971],[7.411735119156704,9.286082995066295],[7.411722474884578,9.286010392480236]]]}},
{"type":"Feature","properties":{"fid":58,"id":"staff_lounge_building","name":"Staff Lounge","building_type":"service","status":"open"},"geometry":{"type":"Polygon","coordinates":[[[7.411665000920368,9.28600131715592],[7.41171212957102,9.285996779493674],[7.411693737902471,9.285875397006787],[7.411647758731108,9.285884472334363],[7.411665000920368,9.28600131715592]]]}},
{"type":"Feature","properties":{"fid":59,"id":"dangana_building","name":"Dangana","building_type":"service","status":"open"},"geometry":{"type":"Polygon","coordinates":[[[7.41078226430075,9.286890752007835],[7.410748584234752,9.286914683806295],[7.410768792274351,9.286941274691554],[7.410802472340349,9.286922661072087],[7.41078226430075,9.286890752007835]]]}},
{"type":"Feature","properties":{"fid":60,"id":"nif_shop_building","name":"NIF Shop","building_type":"service","status":"open"},"geometry":{"type":"Polygon","coordinates":[[[7.411862720817989,9.286820286147325],[7.411870804033828,9.286880115652441],[7.411923344936787,9.286876127019084],[7.411916608923589,9.286816297513289],[7.411862720817989,9.286820286147325]]]}},
{"type":"Feature","properties":{"fid":61,"id":"down_cafe_building","name":"Down Cafe","building_type":"resturant","status":"open"},"geometry":{"type":"Polygon","coordinates":[[[7.412622327505964,9.284461202445479],[7.412619633100682,9.284547623420249],[7.412641188342922,9.284547623420249],[7.41264253554556,9.284563578059419],[7.412668132395722,9.284563578059419],[7.412669479598361,9.284548952973541],[7.41268564603004,9.284550282526832],[7.41269507644852,9.284467850213529],[7.412622327505964,9.284461202445479]]]}},
{"type":"Feature","properties":{"fid":62,"id":"water_factory_building","name":"Water Factory","building_type":"service","status":"open"},"geometry":{"type":"Polygon","coordinates":[[[7.414892013531833,9.287187429755752],[7.414998063302847,9.287092004765412],[7.414929442862778,9.287011970882515],[7.414921645085498,9.287024283788767],[7.414918525974584,9.287019666448971],[7.414910728197306,9.287019666448971],[7.414885775310006,9.286999657975832],[7.414857703311799,9.287021205562244],[7.414814035759029,9.286981188614995],[7.414659639768878,9.287119708797547],[7.414673675767981,9.287136639038323],[7.414650282436141,9.287161264841634],[7.414683033100719,9.287198203543351],[7.414806237981748,9.287088926539486],[7.414892013531833,9.287187429755752]]]}},
{"type":"Feature","properties":{"fid":63,"id":"bread_factory_building","name":"Bread Factory","building_type":"service","status":"open"},"geometry":{"type":"Polygon","coordinates":[[[7.414502498524262,9.287327085315503],[7.414446471998084,9.287373411125035],[7.414472213915519,9.287406287502275],[7.414526726211258,9.287364444839797],[7.414502498524262,9.287327085315503]]]}},
{"type":"Feature","properties":{"fid":65,"id":"vendors_building","name":"Vendors Building","building_type":"shop","status":"open"},"geometry":{"type":"Polygon","coordinates":[[[7.413464811951584,9.286700544604679],[7.413456517817134,9.2864222400476],[7.413763400791799,9.286417328788721],[7.413761741964909,9.2864222400476],[7.413801553810272,9.286425514220142],[7.413799894983382,9.286477900976694],[7.413517894412067,9.286490997664611],[7.413522870892737,9.286700544604679],[7.413464811951584,9.286700544604679]]]}},
{"type":"Feature","properties":{"fid":66,"id":"second_vendors_building","name":"Vendors Second Building","building_type":"shop","status":"open"},"geometry":{"type":"Polygon","coordinates":[[[7.413786624368259,9.286489360578647],[7.413705341850647,9.286490997664611],[7.413697047716197,9.286623601602182],[7.413788283195152,9.286625238687515],[7.413786624368259,9.286590859893863],[7.41377169492625,9.286592496979356],[7.413775012580031,9.286530287725419],[7.413789942022039,9.286530287725419],[7.413786624368259,9.286489360578647]]]}},
{"type":"Feature","properties":{"fid":67,"id":"hostel_security_building","name":"Hostel Security Building","building_type":"service","status":"open"},"geometry":{"type":"Polygon","coordinates":[[[7.413443247202014,9.28673819755719],[7.413478082566706,9.28673819755719],[7.413478082566706,9.286705455859584],[7.413439929548235,9.286705455859584],[7.413443247202014,9.28673819755719]]]}},
{"type":"Feature","properties":{"fid":68,"id":"macd_building","name":"MAC D","building_type":"resturant","status":"open"},"geometry":{"type":"Polygon","coordinates":[[[7.413433294240673,9.286630149943475],[7.413456517817134,9.286631787028782],[7.413458176644025,9.286589222808372],[7.413453200163353,9.286487723492678],[7.413449882509576,9.286453344685537],[7.413398458875982,9.286454981771668],[7.413433294240673,9.286630149943475]]]}},
{"type":"Feature","properties":{"fid":69,"id":"bush_cafe_building","name":"Bush Cafe","building_type":"resturant","status":"open"},"geometry":{"type":"Polygon","coordinates":[[[7.414092490218887,9.286656321733849],[7.414031528330677,9.286731955061301],[7.414120358510641,9.286811026249811],[7.414203963385902,9.286881502728882],[7.414320661857619,9.286733674000372],[7.414284084724693,9.28671476567013],[7.414270150578814,9.286740549756567],[7.414242282287064,9.286738830817532],[7.414221381068247,9.286731955061301],[7.414092490218887,9.286656321733849]]]}},
{"type":"Feature","properties":{"fid":70,"id":"generator_building","name":"Generator Building","building_type":"service","status":"open"},"geometry":{"type":"Polygon","coordinates":[[[7.414187915443891,9.286881947844442],[7.414108554819273,9.28695796471475],[7.413956835978093,9.286815145126614],[7.414026860058639,9.286739128225326],[7.414187915443891,9.286881947844442]]]}}
]
}
