{
"type": "FeatureCollection",
"name": "entrances",
"crs": { "type": "name", "properties": { "name": "urn:ogc:def:crs:OGC:1.3:CRS84" } },
"features": [
{"type":"Feature","properties":{"fid":1,"id":"entrance_block_c_building_main","name":"Block C Main Entrance","building_id":"block_c_building","entrance_type":"main","access":"public","status":"open"},"geometry":{"type":"Point","coordinates":[7.415640241651114,9.288446382788162]}},
{"type":"Feature","properties":{"fid":2,"id":"entrance_block_c_building_back","name":"Block C Back Entrance","building_id":"block_c_building","entrance_type":"back","access":"public","status":"open"},"geometry":{"type":"Point","coordinates":[7.415379511956459,9.288686385303693]}},
{"type":"Feature","properties":{"fid":3,"id":"entrance_block_c_building_side","name":"Block C Side Entrance","building_id":"block_c_building","entrance_type":"side","access":"public","status":"open"},"geometry":{"type":"Point","coordinates":[7.41531213205605,9.288573748545536]}},
{"type":"Feature","properties":{"fid":4,"id":"entrance_block_b_building_main","name":"Block B Main Entrance","building_id":"block_b_building","entrance_type":"main","access":"public","status":"open"},"geometry":{"type":"Point","coordinates":[7.415866258096747,9.288934082689179]}},
{"type":"Feature","properties":{"fid":5,"id":"entrance_block_b_building_back","name":"Block B Back Entrance","building_id":"block_b_building","entrance_type":"back","access":"public","status":"open"},"geometry":{"type":"Point","coordinates":[7.415631836285796,9.289096930835051]}},
{"type":"Feature","properties":{"fid":6,"id":"entrance_block_b_building_side","name":"Block B Side Entrance","building_id":"block_b_building","entrance_type":"side","access":"public","status":"open"},"geometry":{"type":"Point","coordinates":[7.415570284190181,9.288987072967176]}},
{"type":"Feature","properties":{"fid":7,"id":"entrance_block_a_building_main","name":"Block A Main Entrance","building_id":"block_a_building","entrance_type":"main","access":"public","status":"open"},"geometry":{"type":"Point","coordinates":[7.416072472172195,9.28928915218706]}},
{"type":"Feature","properties":{"fid":8,"id":"entrance_block_a_building_side","name":"Block A Side Entrance","building_id":"block_a_building","entrance_type":"side","access":"public","status":"open"},"geometry":{"type":"Point","coordinates":[7.415769567084506,9.289337215882897]}},
{"type":"Feature","properties":{"fid":9,"id":"entrance_block_a_building_back","name":"Block A Back Entrance","building_id":"block_a_building","entrance_type":"back","access":"public","status":"open"},"geometry":{"type":"Point","coordinates":[7.4158327511323,9.289446405646318]}},
{"type":"Feature","properties":{"fid":10,"id":"entrance_block_d_building_main","name":"Block D Main Entrance","building_id":"block_d_building","entrance_type":"main","access":"public","status":"open"},"geometry":{"type":"Point","coordinates":[7.415513465388663,9.287811201894311]}},
{"type":"Feature","properties":{"fid":11,"id":"entrance_auditorium_building_main","name":"Auditorium Main Entrance","building_id":"auditorium_building","entrance_type":"main","access":"public","status":"open"},"geometry":{"type":"Point","coordinates":[7.415850117619548,9.287643821817433]}},
{"type":"Feature","properties":{"fid":12,"id":"entrance_hostel_k_building_main","name":"Hostel K Main Entrance","building_id":"hostel_k_building","entrance_type":"main","access":"public","status":"open"},"geometry":{"type":"Point","coordinates":[7.411612190355603,9.28648449165506]}},
{"type":"Feature","properties":{"fid":13,"id":"entrance_hostel_l_building_main","name":"Hostel L Main Entrance","building_id":"hostel_l_building","entrance_type":"main","access":"public","status":"open"},"geometry":{"type":"Point","coordinates":[7.411643109940319,9.286387545262107]}},
{"type":"Feature","properties":{"fid":14,"id":"entrance_hostel_i_building_main","name":"Hostel I Main Entrance","building_id":"hostel_i_building","entrance_type":"main","access":"public","status":"open"},"geometry":{"type":"Point","coordinates":[7.41127269779841,9.286807839414291]}},
{"type":"Feature","properties":{"fid":16,"id":"entrance_hostel_m_building_main","name":"Hostel M Main Entrance","building_id":"hostel_m_building","entrance_type":"main","access":"public","status":"open"},"geometry":{"type":"Point","coordinates":[7.41167783826831,9.286758729725864]}},
{"type":"Feature","properties":{"fid":17,"id":"entrance_hostel_a_building_main","name":"Hostel A Main Entrance","building_id":"hostel_a_building","entrance_type":"main","access":"public","status":"open"},"geometry":{"type":"Point","coordinates":[7.412930333144401,9.28654218964471]}},
{"type":"Feature","properties":{"fid":18,"id":"entrance_hostel_b_building_main","name":"Hostel B Main Entrance","building_id":"hostel_b_building","entrance_type":"main","access":"public","status":"open"},"geometry":{"type":"Point","coordinates":[7.412882926363526,9.286282742957416]}},
{"type":"Feature","properties":{"fid":19,"id":"entrance_workshop_building_main","name":"Wokshop Main Entrance","building_id":"workshop_building","entrance_type":"main","access":"public","status":"open"},"geometry":{"type":"Point","coordinates":[7.415357850585711,9.286989659179593]}},
{"type":"Feature","properties":{"fid":20,"id":"entrance_senate_building_main","name":"Senate Main Entrance","building_id":"senate_building","entrance_type":"main","access":"public","status":"open"},"geometry":{"type":"Point","coordinates":[7.418825269807147,9.285522070218976]}},
{"type":"Feature","properties":{"fid":22,"id":"entrance_library_building_main","name":"Library Main Entrance","building_id":"library_building","entrance_type":"main","access":"public","status":"open"},"geometry":{"type":"Point","coordinates":[7.417136645871595,9.286574995216689]}},
{"type":"Feature","properties":{"fid":23,"id":"entrance_nlt_building_main","name":"NLT Main Entrance","building_id":"nlt_building","entrance_type":"main","access":"public","status":"open"},"geometry":{"type":"Point","coordinates":[7.416515203956562,9.289644603222014]}},
{"type":"Feature","properties":{"fid":24,"id":"entrance_nlt_building_side","name":"NLT Side Entrance","building_id":"nlt_building","entrance_type":"side","access":"public","status":"open"},"geometry":{"type":"Point","coordinates":[7.416666139905675,9.28939323918955]}},
{"type":"Feature","properties":{"fid":25,"id":"entrance_ict_building_main","name":"ICT Main Entance","building_id":"ict_building","entrance_type":"main","access":"public","status":"open"},"geometry":{"type":"Point","coordinates":[7.416834582314481,9.288504958891979]}},
{"type":"Feature","properties":{"fid":26,"id":"entrance_chapel_building_main","name":"Chapel Main Entrance","building_id":"chapel_building","entrance_type":"main","access":"public","status":"open"},"geometry":{"type":"Point","coordinates":[7.418505485191702,9.28790971093648]}},
{"type":"Feature","properties":{"fid":27,"id":"entrance_clinic_building_main","name":"Clinic Main Entrance","building_id":"clinic_building","entrance_type":"main","access":"public","status":"open"},"geometry":{"type":"Point","coordinates":[7.416155601033621,9.286167241025765]}},
{"type":"Feature","properties":{"fid":28,"id":"entrance_unidentified_nine_building_main","name":"Unidentified Nine Main Entrance","building_id":"unidentified_nine_building","entrance_type":"main","access":"public","status":"open"},"geometry":{"type":"Point","coordinates":[7.417357403872177,9.285116201389023]}},
{"type":"Feature","properties":{"fid":29,"id":"entrance_hostel_s_building_main","name":"Hostel S Main Entrance","building_id":"hostel_s_building","entrance_type":"main","access":"public","status":"open"},"geometry":{"type":"Point","coordinates":[7.416780934660157,9.279161461629531]}},
{"type":"Feature","properties":{"fid":30,"id":"entrance_hostel_n_building_main","name":"Hostel N Main Entrance","building_id":"hostel_n_building","entrance_type":"main","access":"public","status":"open"},"geometry":{"type":"Point","coordinates":[7.410373925971335,9.287021576025188]}},
{"type":"Feature","properties":{"fid":31,"id":"entrance_faculty_law_building_main","name":"Law Faculty Main Entrance","building_id":"faculty_law_building","entrance_type":"main","access":"public","status":"open"},"geometry":{"type":"Point","coordinates":[7.419114841439003,9.289514899341171]}},
{"type":"Feature","properties":{"fid":32,"id":"entrance_nlt_building_back","name":"NLT Back Entrance","building_id":"nlt_building","entrance_type":"back","access":"public","status":"open"},"geometry":{"type":"Point","coordinates":[7.416849326137463,9.289446396913997]}}
]
}
