{
"type": "FeatureCollection",
"name": "places",
"crs": { "type": "name", "properties": { "name": "urn:ogc:def:crs:OGC:1.3:CRS84" } },
"features": [
{"type":"Feature","properties":{"fid":1,"id":"hostel_n","name":"Hostel N","category":"boys_hostel","building_id":"hostel_n_building","status":"open"},"geometry":{"type":"Point","coordinates":[7.41011599085084,9.286825383068052]}},
{"type":"Feature","properties":{"fid":2,"id":"hostel_m","name":"Hostel M","category":"boys_hostel","building_id":"hostel_m_building","status":"open"},"geometry":{"type":"Point","coordinates":[7.410396730818412,9.286624753162394]}},
{"type":"Feature","properties":{"fid":3,"id":"hostel_i","name":"Hostel I","category":"boys_hostel","building_id":"hostel_i_building","status":"open"},"geometry":{"type":"Point","coordinates":[7.411131682482737,9.286875097445]}},
{"type":"Feature","properties":{"fid":4,"id":"hostel_j","name":"Hostel J","category":"boys_hostel","building_id":"hostel_j_building","status":"open"},"geometry":{"type":"Point","coordinates":[7.411534964471771,9.286795498224985]}},
{"type":"Feature","properties":{"fid":5,"id":"hostel_k","name":"Hostel K","category":"boys_hostel","building_id":"hostel_k_building","status":"open"},"geometry":{"type":"Point","coordinates":[7.411345351185699,9.286541339190906]}},
{"type":"Feature","properties":{"fid":6,"id":"hostel_l","name":"Hostel L","category":"boys_hostel","building_id":"hostel_l_building","status":"open"},"geometry":{"type":"Point","coordinates":[7.411403914277352,9.286212435170141]}},
{"type":"Feature","properties":{"fid":7,"id":"hostel_a","name":"Hostel A","category":"girls_hostel","building_id":"hostel_a_building","status":"open"},"geometry":{"type":"Point","coordinates":[7.413077774520314,9.28651835709065]}},
{"type":"Feature","properties":{"fid":8,"id":"hostel_b","name":"Hostel B","category":"girls_hostel","building_id":"hostel_b_building","status":"open"},"geometry":{"type":"Point","coordinates":[7.413033980929314,9.286238566809399]}},
{"type":"Feature","properties":{"fid":9,"id":"hostel_c","name":"Hostel C","category":"boys_hostel","building_id":"hostel_c_building","status":"open"},"geometry":{"type":"Point","coordinates":[7.413107245238485,9.285032707338404]}},
{"type":"Feature","properties":{"fid":10,"id":"hostel_d","name":"Hostel D","category":"boys_hostel","building_id":"hostel_d_building","status":"open"},"geometry":{"type":"Point","coordinates":[7.412883304994557,9.285020231184209]}},
{"type":"Feature","properties":{"fid":11,"id":"nlt","name":"New Lecture Theatre (NLT)","category":"hall","building_id":"nlt_building","status":"open"},"geometry":{"type":"Point","coordinates":[7.416670297516188,9.289540602230396]}},
{"type":"Feature","properties":{"fid":12,"id":"block_a","name":"Block A","category":"block","building_id":"block_a_building","status":"open"},"geometry":{"type":"Point","coordinates":[7.415930752920316,9.289332876877793]}},
{"type":"Feature","properties":{"fid":13,"id":"block_b","name":"Block B","category":"block","building_id":"block_b_building","status":"open"},"geometry":{"type":"Point","coordinates":[7.415723212025733,9.288994323271217]}},
{"type":"Feature","properties":{"fid":14,"id":"block_c","name":"Block C","category":"block","building_id":"block_c_building","status":"open"},"geometry":{"type":"Point","coordinates":[7.415493125963977,9.288554778839082]}},
{"type":"Feature","properties":{"fid":15,"id":"block_d","name":"Block D","category":"block","building_id":"block_d_building","status":"open"},"geometry":{"type":"Point","coordinates":[7.415413673390147,9.287618414754998]}},
{"type":"Feature","properties":{"fid":16,"id":"mph","name":"Multipurpose Hall (MPH)","category":"hall","building_id":"mph_building","status":"open"},"geometry":{"type":"Point","coordinates":[7.415989588370979,9.287563952248274]}},
{"type":"Feature","properties":{"fid":17,"id":"workshop","name":"Wokshop","category":"service","building_id":"workshop_building","status":"open"},"geometry":{"type":"Point","coordinates":[7.415403713927907,9.286920152138334]}},
{"type":"Feature","properties":{"fid":18,"id":"ict","name":"ICT","category":"service","building_id":"ict_building","status":"open"},"geometry":{"type":"Point","coordinates":[7.416879553275267,9.288465280679779]}},
{"type":"Feature","properties":{"fid":19,"id":"chapel","name":"Chapel","category":"service","building_id":"chapel_building","status":"open"},"geometry":{"type":"Point","coordinates":[7.418739273844968,9.287890219296202]}},
{"type":"Feature","properties":{"fid":20,"id":"auditorium","name":"Auditorium","category":"hall","building_id":"auditorium_building","status":"open"},"geometry":{"type":"Point","coordinates":[7.417336560975418,9.286979674707386]}},
{"type":"Feature","properties":{"fid":21,"id":"library","name":"Library","category":"service","building_id":"library_building","status":"open"},"geometry":{"type":"Point","coordinates":[7.416980943112088,9.286532110787681]}},
{"type":"Feature","properties":{"fid":22,"id":"clinic","name":"Clinic","category":"service","building_id":"clinic_building","status":"open"},"geometry":{"type":"Point","coordinates":[7.416090151825965,9.286148921225834]}},
{"type":"Feature","properties":{"fid":23,"id":"senate","name":"Senate","category":"service","building_id":"senate_building","status":"open"},"geometry":{"type":"Point","coordinates":[7.418816215094441,9.285424547554339]}},
{"type":"Feature","properties":{"fid":24,"id":"faculty_law","name":"Law Faculty","category":"faculty","building_id":"faculty_law_building","status":"open"},"geometry":{"type":"Point","coordinates":[7.419215725102931,9.289519291720655]}},
{"type":"Feature","properties":{"fid":25,"id":"unidentified_three","name":"Unidentified Three","category":"girls_hostel","building_id":"unidentified_three_building","status":"open"},"geometry":{"type":"Point","coordinates":[7.412077693176294,9.285936866323862]}},
{"type":"Feature","properties":{"fid":26,"id":"unidentified_four","name":"Unidentified Four","category":"girls_hostel","building_id":"unidentified_four_building","status":"open"},"geometry":{"type":"Point","coordinates":[7.41201013312712,9.285684661938737]}},
{"type":"Feature","properties":{"fid":27,"id":"hostel_h","name":"Hostel H","category":"boys_hostel","building_id":"hostel_h_building","status":"open"},"geometry":{"type":"Point","coordinates":[7.412333411933545,9.285635329372559]}},
{"type":"Feature","properties":{"fid":28,"id":"hostel_g","name":"Hostel G","category":"boys_hostel","building_id":"hostel_g_building","status":"open"},"geometry":{"type":"Point","coordinates":[7.412295836021328,9.285340721244365]}},
{"type":"Feature","properties":{"fid":29,"id":"hostel_f","name":"Hostel F","category":"boys_hostel","building_id":"hostel_f_building","status":"open"},"geometry":{"type":"Point","coordinates":[7.41222485929825,9.284914260088595]}},
{"type":"Feature","properties":{"fid":30,"id":"hostel_e","name":"Hostel E","category":"boys_hostel","building_id":"hostel_e_building","status":"open"},"geometry":{"type":"Point","coordinates":[7.412245734805037,9.284481617806088]}},
{"type":"Feature","properties":{"fid":31,"id":"unidentified_one","name":"Unidentified One","category":"girls_hostel","building_id":"unidentified_one_building","status":"open"},"geometry":{"type":"Point","coordinates":[7.412285484908973,9.286518813956159]}},
{"type":"Feature","properties":{"fid":32,"id":"unidentified_two","name":"Unidentified Two","category":"girls_hostel","building_id":"unidentified_two_building","status":"open"},"geometry":{"type":"Point","coordinates":[7.412065653470941,9.286273049898899]}},
{"type":"Feature","properties":{"fid":33,"id":"hostel_s","name":"Hostel S","category":"boys_hostel","building_id":"hostel_s_building","status":"open"},"geometry":{"type":"Point","coordinates":[7.416723945375861,9.279146623129561]}},
{"type":"Feature","properties":{"fid":34,"id":"hostel_r","name":"Hostel R","category":"boys_hostel","building_id":"hostel_r_building","status":"open"},"geometry":{"type":"Point","coordinates":[7.417332754339558,9.279274074519227]}},
{"type":"Feature","properties":{"fid":35,"id":"new_kelson","name":"New Kelson","category":"girls_hostel","building_id":"new_kelson_building","status":"open"},"geometry":{"type":"Point","coordinates":[7.419054885434754,9.280588910816862]}},
{"type":"Feature","properties":{"fid":36,"id":"unidentified_six","name":"Unidentified Six","category":"girls_hostel","building_id":"unidentified_six_building","status":"open"},"geometry":{"type":"Point","coordinates":[7.418705730253044,9.28235096672684]}},
{"type":"Feature","properties":{"fid":37,"id":"unidentified_five","name":"Unidentified Five","category":"girls_hostel","building_id":"unidentified_five_building","status":"open"},"geometry":{"type":"Point","coordinates":[7.418710122814111,9.282539541022729]}},
{"type":"Feature","properties":{"fid":38,"id":"unidentified_ten","name":"Unidentified Ten","category":"girls_hostel","building_id":"unidentified_ten_building","status":"open"},"geometry":{"type":"Point","coordinates":[7.418859469890342,9.282871171434957]}},
{"type":"Feature","properties":{"fid":39,"id":"paetos","name":"Paetos","category":"girls_hostel","building_id":"paetos_building","status":"open"},"geometry":{"type":"Point","coordinates":[7.418558579457346,9.283358862647702]}},
{"type":"Feature","properties":{"fid":40,"id":"unidentified_eleven","name":"Unidentified Eleven","category":"girls_hostel","building_id":"unidentified_eleven_building","status":"open"},"geometry":{"type":"Point","coordinates":[7.416981650034783,9.282543876062823]}},
{"type":"Feature","properties":{"fid":41,"id":"unidentified_nine","name":"Unidentified Nine","category":"girls_hostel","building_id":"unidentified_nine_building","status":"open"},"geometry":{"type":"Point","coordinates":[7.417343529014081,9.284892293090387]}},
{"type":"Feature","properties":{"fid":42,"id":"unidentified_eight","name":"Unidentified Eight","category":"girls_hostel","building_id":"unidentified_eight_building","status":"open"},"geometry":{"type":"Point","coordinates":[7.415918347617018,9.284841896065581]}},
{"type":"Feature","properties":{"fid":43,"id":"unidentified_seven","name":"Unidentified Seven","category":"girls_hostel","building_id":"unidentified_seven_building","status":"open"},"geometry":{"type":"Point","coordinates":[7.415838853754715,9.28561933970926]}},
{"type":"Feature","properties":{"fid":44,"id":"football_field_two","name":"Football Field Two","category":"sport","building_id":"football_field_two_building","status":"open"},"geometry":{"type":"Point","coordinates":[7.417623853782507,9.290107497974791]}},
{"type":"Feature","properties":{"fid":45,"id":"football_field_one","name":"Football Field One","category":"sport","building_id":"football_field_one_building","status":"open"},"geometry":{"type":"Point","coordinates":[7.417125406122751,9.29110050106928]}},
{"type":"Feature","properties":{"fid":46,"id":"hostel_j_stop","name":"Hostel J Stop","category":"pickup","building_id":"hostel_j_building","status":"open"},"geometry":{"type":"Point","coordinates":[7.411715389158982,9.286765582940037]}},
{"type":"Feature","properties":{"fid":47,"id":"hostel_i_stop","name":"Hostel I","category":"pickup","building_id":"hostel_i_building","status":"open"},"geometry":{"type":"Point","coordinates":[7.411294510612418,9.286802544688971]}},
{"type":"Feature","properties":{"fid":48,"id":"hostel_n_stop","name":"Hostel N","category":"pickup","building_id":"hostel_n_building","status":"open"},"geometry":{"type":"Point","coordinates":[7.410401970616007,9.287062661653561]}},
{"type":"Feature","properties":{"fid":49,"id":"block_d_stop","name":"Block D","category":"pickup","building_id":"block_d_building","status":"open"},"geometry":{"type":"Point","coordinates":[7.415538113752442,9.287884544534277]}},
{"type":"Feature","properties":{"fid":50,"id":"mph_stop","name":"Multipurpose Hall (MPH)","category":"pickup","building_id":"mph_building","status":"open"},"geometry":{"type":"Point","coordinates":[7.415822844277219,9.287819500998227]}},
{"type":"Feature","properties":{"fid":51,"id":"behind_block_c_stop","name":"Behind Block C","category":"pickup","building_id":"block_c_building","status":"open"},"geometry":{"type":"Point","coordinates":[7.415253137261375,9.28868364465438]}},
{"type":"Feature","properties":{"fid":52,"id":"behind_block_b_stop","name":"Behind Block B","category":"pickup","building_id":"block_b_building","status":"open"},"geometry":{"type":"Point","coordinates":[7.41551444497848,9.289112835888588]}},
{"type":"Feature","properties":{"fid":53,"id":"behind_block_a_stop","name":"Behind Block A","category":"pickup","building_id":"block_a_building","status":"open"},"geometry":{"type":"Point","coordinates":[7.415710133669736,9.289440797426078]}},
{"type":"Feature","properties":{"fid":54,"id":"faculty_law_stop","name":"Faculty of Law","category":"pickup","building_id":"faculty_law_building","status":"open"},"geometry":{"type":"Point","coordinates":[7.418734375486051,9.289463837316452]}},
{"type":"Feature","properties":{"fid":55,"id":"software_building","name":"Software Building","category":"Faculty","building_id":"software_building_building","status":"open"},"geometry":{"type":"Point","coordinates":[7.417269006361409,9.28752563172003]}},
{"type":"Feature","properties":{"fid":56,"id":"chapel_stop","name":"Chapel Stop","category":"pickup","building_id":"chapel_building","status":"open"},"geometry":{"type":"Point","coordinates":[7.418402074215789,9.287916262578509]}},
{"type":"Feature","properties":{"fid":57,"id":"software_building_stop","name":"Software Building Stop","category":"pickup","building_id":"software_building_building","status":"open"},"geometry":{"type":"Point","coordinates":[7.417657167969937,9.287340845538546]}},
{"type":"Feature","properties":{"fid":58,"id":"clinic_stop","name":"Clinic stop","category":"pickup","building_id":"clinic_building","status":"open"},"geometry":{"type":"Point","coordinates":[7.41644594330935,9.286181457266032]}},
{"type":"Feature","properties":{"fid":59,"id":"hostel_a_stop","name":"Hostel A stop","category":"pickup","building_id":"hostel_a_building","status":"open"},"geometry":{"type":"Point","coordinates":[7.412860598299256,9.286574748580643]}},
{"type":"Feature","properties":{"fid":60,"id":"hostel_b_stop","name":"Hostel B stop","category":"pickup","building_id":"hostel_b_building","status":"open"},"geometry":{"type":"Point","coordinates":[7.412813309749049,9.286303436839201]}},
{"type":"Feature","properties":{"fid":61,"id":"hostel_l_stop","name":"Hostel L stop","category":"pickup","building_id":"hostel_l_building","status":"open"},"geometry":{"type":"Point","coordinates":[7.411660969420343,9.2864092093654]}},
{"type":"Feature","properties":{"fid":62,"id":"hostel_k_stop","name":"Hostel K stop","category":"pickup","building_id":"hostel_k_building","status":"open"},"geometry":{"type":"Point","coordinates":[7.411680782203011,9.286479370542068]}},
{"type":"Feature","properties":{"fid":63,"id":"hostel_m_stop","name":"Hostel M stop","category":"pickup","building_id":"hostel_m_building","status":"open"},"geometry":{"type":"Point","coordinates":[7.410723754319183,9.286738828238198]}},
{"type":"Feature","properties":{"fid":64,"id":"boys_hostel_gate","name":"Boys Hostel Gate","category":"gate","building_id":null,"status":"open"},"geometry":{"type":"Point","coordinates":[7.413447191645244,9.286798315576501]}},
{"type":"Feature","properties":{"fid":65,"id":"munchbox_stop","name":"MunchBox Stop","category":"pickup","building_id":"munchbox_building","status":"open"},"geometry":{"type":"Point","coordinates":[7.414627557620493,9.287721600088465]}},
{"type":"Feature","properties":{"fid":66,"id":"dry_cleaner","name":"Dry Cleaner","category":"service","building_id":"dry_cleaner_building","status":"open"},"geometry":{"type":"Point","coordinates":[7.411701960859876,9.286050999390476]}},
{"type":"Feature","properties":{"fid":67,"id":"staff_lounge","name":"Staff Lounge","category":"service","building_id":"staff_lounge_building","status":"open"},"geometry":{"type":"Point","coordinates":[7.411680475512134,9.285940337426933]}},
{"type":"Feature","properties":{"fid":68,"id":"nif_shop","name":"NIF Shop","category":"shop","building_id":"nif_shop_building","status":"open"},"geometry":{"type":"Point","coordinates":[7.411893405683789,9.286849680083856]}},
{"type":"Feature","properties":{"fid":69,"id":"generator","name":"Generator","category":"service","building_id":"generator_building","status":"open"},"geometry":{"type":"Point","coordinates":[7.414072798143425,9.286852775511514]}},
{"type":"Feature","properties":{"fid":70,"id":"hostel_security","name":"Hostel Security","category":"service","building_id":"hostel_security_building","status":"open"},"geometry":{"type":"Point","coordinates":[7.413459688114791,9.286721811241469]}},
{"type":"Feature","properties":{"fid":71,"id":"macd","name":"Mac D","category":"resturant","building_id":"macd_building","status":"open"},"geometry":{"type":"Point","coordinates":[7.41343646660818,9.286538474028658]}},
{"type":"Feature","properties":{"fid":73,"id":"ict_stop","name":"ICT stop","category":"service","building_id":"ict_building","status":"open"},"geometry":{"type":"Point","coordinates":[7.416473531976447,9.288793296621158]}},
{"type":"Feature","properties":{"fid":74,"id":"chill_zone4","name":"Chill Zone 4","category":"service","building_id":"chill_zone4_building","status":"open"},"geometry":{"type":"Point","coordinates":[7.416181990331933,9.288642045772256]}},
{"type":"Feature","properties":{"fid":75,"id":"chill_zone3","name":"Chill Zone 3","category":"service","building_id":"chill_zone4_building","status":"open"},"geometry":{"type":"Point","coordinates":[7.415940935352869,9.288788798658125]}},
{"type":"Feature","properties":{"fid":76,"id":"chill_zone1","name":"Chill Zone 1","category":"service","building_id":"chill_zone_building","status":"open"},"geometry":{"type":"Point","coordinates":[7.41604267933754,9.288414964869801]}},
{"type":"Feature","properties":{"fid":77,"id":"chill_zone2","name":"Chill Zone 2","category":"service","building_id":"chill_zone2_building","status":"open"},"geometry":{"type":"Point","coordinates":[7.415811016110904,9.288560173082896]}},
{"type":"Feature","properties":{"fid":78,"id":"old_football_field","name":"Old Football Field","category":"sport","building_id":"old_football_field_building","status":"open"},"geometry":{"type":"Point","coordinates":[7.416974170239797,9.290026642445108]}},
{"type":"Feature","properties":{"fid":79,"id":"new_football_field","name":"New Football Field","category":"sport","building_id":"new_football_field","status":"open"},"geometry":{"type":"Point","coordinates":[7.416621542791643,9.290643047971288]}},
{"type":"Feature","properties":{"fid":80,"id":"main_basket_ball_court","name":"Main BasketBall Court","category":"sport","building_id":"sports_building","status":"open"},"geometry":{"type":"Point","coordinates":[7.416410211252968,9.290315492489356]}},
{"type":"Feature","properties":{"fid":81,"id":"basketball_court","name":"BasketBall Court","category":"sport","building_id":"sports_building","status":"open"},"geometry":{"type":"Point","coordinates":[7.416532659739005,9.289992836309199]}},
{"type":"Feature","properties":{"fid":82,"id":"volleyball_court","name":"VolleyBall Court","category":"sport","building_id":"sports_building","status":"open"},"geometry":{"type":"Point","coordinates":[7.416090712459177,9.289884996841984]}},
{"type":"Feature","properties":{"fid":83,"id":"tennis_court","name":"Tennis Court","category":"sport","building_id":"sports_building","status":"open"},"geometry":{"type":"Point","coordinates":[7.416253407336916,9.290146207938719]}},
{"type":"Feature","properties":{"fid":84,"id":"badmiton_court","name":"Badmiton Court","category":"sport","building_id":"sports_building","status":"open"},"geometry":{"type":"Point","coordinates":[7.416175702320682,9.290021593494849]}},
{"type":"Feature","properties":{"fid":85,"id":"dangana","name":"Dangana","category":"service","building_id":"dangana_building","status":"open"},"geometry":{"type":"Point","coordinates":[7.410776737806067,9.286917079717911]}},
{"type":"Feature","properties":{"fid":86,"id":"unidentified_one_stop","name":"Unidentified One Stop","category":"pickup","building_id":"unidentified_one_building","status":"open"},"geometry":{"type":"Point","coordinates":[7.412339685231929,9.286280548202688]}},
{"type":"Feature","properties":{"fid":87,"id":"unidentified_two_stop","name":"Unidentified Two Stop","category":"pickup","building_id":"unidentified_two_building","status":"open"},"geometry":{"type":"Point","coordinates":[7.412339685231929,9.286280548202688]}},
{"type":"Feature","properties":{"fid":88,"id":"hostel_c_stop","name":"Hostel C stop","category":"pickup","building_id":"hostel_c_building","status":"open"},"geometry":{"type":"Point","coordinates":[7.412994510965297,9.285028065617103]}},
{"type":"Feature","properties":{"fid":89,"id":"hostel_d_stop","name":"Hostel D Stop","category":"pickup","building_id":"hostel_d_building","status":"open"},"geometry":{"type":"Point","coordinates":[7.412994510965297,9.285028065617103]}},
{"type":"Feature","properties":{"fid":90,"id":"dry_cleaner_stop","name":"Dry Cleaner Stop","category":"pickup","building_id":"dry_cleaner_building","status":"open"},"geometry":{"type":"Point","coordinates":[7.411660969420343,9.2864092093654]}},
{"type":"Feature","properties":{"fid":91,"id":"unidentified_three_stop","name":"Unidentified Three Stop","category":"pickup","building_id":"unidentified_three_building","status":"open"},"geometry":{"type":"Point","coordinates":[7.412259370120733,9.285905439143777]}},
{"type":"Feature","properties":{"fid":92,"id":"unidentified_four_stop","name":"Unidentified Four Stop","category":"pickup","building_id":"unidentified_four_building","status":"open"},"geometry":{"type":"Point","coordinates":[7.412208973614913,9.285799106814805]}},
{"type":"Feature","properties":{"fid":93,"id":"hostel_h_stop","name":"Hostel H Stop","category":"pickup","building_id":"hostel_h_building","status":"open"},"geometry":{"type":"Point","coordinates":[7.412419085027262,9.285760020609116]}},
{"type":"Feature","properties":{"fid":94,"id":"down_cafe","name":"Down Cafe","category":"pickup","building_id":"down_cafe_building","status":"open"},"geometry":{"type":"Point","coordinates":[7.41265742335702,9.284507977634625]}},
{"type":"Feature","properties":{"fid":95,"id":"boys_hostel_gate_stop","name":"Boys Hostel Gate","category":"pickup","building_id":null,"status":"open"},"geometry":{"type":"Point","coordinates":[7.413496844877399,9.286807778113337]}},
{"type":"Feature","properties":{"fid":96,"id":"bush_cafe","name":"Bush Cafe","category":"resturant","building_id":"bush_cafe_building","status":"open"},"geometry":{"type":"Point","coordinates":[7.414151438235095,9.286761716949718]}},
{"type":"Feature","properties":{"fid":97,"id":"water_factory","name":"Water Factory","category":"service","building_id":"water_factory_building","status":"open"},"geometry":{"type":"Point","coordinates":[7.41482114373331,9.28704676147629]}},
{"type":"Feature","properties":{"fid":98,"id":"sports_stop","name":"Sports","category":"pickup","building_id":"sports_building","status":"open"},"geometry":{"type":"Point","coordinates":[7.416118969347798,9.289666276674382]}},
{"type":"Feature","properties":{"fid":99,"id":"bush_cafe_stop","name":"Bush Cafe Stop","category":"pickup","building_id":"bush_cafe_building","status":"open"},"geometry":{"type":"Point","coordinates":[7.413890276501705,9.286801227256888]}},
{"type":"Feature","properties":{"fid":100,"id":"generator_stop","name":"Geneator Stop","category":"pickup","building_id":"generator_building","status":"open"},"geometry":{"type":"Point","coordinates":[7.413929229722656,9.286975704649617]}},
{"type":"Feature","properties":{"fid":101,"id":"bread_factory","name":"Bread Factory","category":"resturant","building_id":"bread_factory_building","status":"open"},"geometry":{"type":"Point","coordinates":[7.414486430726168,9.287368034578764]}},
{"type":"Feature","properties":{"fid":102,"id":"bread_factory_stop","name":"Bread Factory Stop","category":"pickup","building_id":"bread_factory_building","status":"open"},"geometry":{"type":"Point","coordinates":[7.414421872572878,9.287429000636086]}},
{"type":"Feature","properties":{"fid":103,"id":"school_gate","name":"School Gate","category":"gate","building_id":null,"status":"open"},"geometry":{"type":"Point","coordinates":[7.416438582166832,9.29074491229253]}},
{"type":"Feature","properties":{"fid":104,"id":"school_gate_stop","name":"School Gate IN","category":"pickup","building_id":null,"status":"open"},"geometry":{"type":"Point","coordinates":[7.416506176817005,9.290607360572317]}},
{"type":"Feature","properties":{"fid":105,"id":"school_gate_out_stop","name":"School Gate OUT","category":"pickup","building_id":null,"status":"open"},"geometry":{"type":"Point","coordinates":[7.416584391722004,9.290689825824742]}}
]
}
