{
"type": "FeatureCollection",
"name": "roads",
"crs": { "type": "name", "properties": { "name": "urn:ogc:def:crs:OGC:1.3:CRS84" } },
"features": [
{"type":"Feature","properties":{"fid":1,"id":"roundabout","name":"Roundabout","road_type":"campus_road","walkable":true,"drivable":true,"access":"public","surface":"paved","status":"open"},"geometry":{"type":"LineString","coordinates":[[7.41792279327341,9.286252475169404],[7.417914681202756,9.286251331079479],[7.417906510679936,9.286250713040737],[7.417898316692382,9.286250623699715],[7.417890134328008,9.286251063438991],[7.417881998624953,9.286252030375531],[7.417873944421546,9.286253520368756],[7.417866006207124,9.286255527038282],[7.417858217974341,9.286258041791235],[7.417850613073601,9.28626105385904],[7.417843224070263,9.286264550343557],[7.417836082605167,9.286268516272278],[7.417829219259168,9.286272934662481],[7.417822663422164,9.286277786593915],[7.417816443167258,9.286283051289855],[7.417810585130534,9.286288706206042],[7.417805114397006,9.286294727127242],[7.417800054393195,9.286301088270925],[7.417795426786814,9.28630776239768],[7.417791251393983,9.286314720927855],[7.417787546094376,9.28632193406394],[7.417784326754655,9.286329370918162],[7.417781607160526,9.286336999644758],[7.41777939895771,9.286344787576338],[7.417777711602071,9.286352701363775],[7.417776552319121,9.286360707119007],[7.417775926073091,9.286368770560156],[7.417775835545661,9.286376857158329],[7.417776281124485,9.286384932285465],[7.417777260901526,9.286392961362637],[7.417778770681226,9.286400910008107],[7.417780803998477,9.286408744184561],[7.417783352146306,9.286416430344859],[7.417786404213146,9.286423935575701],[7.417789947129588,9.286431227738539],[7.41779396572431,9.286438275607233],[7.41779844278908,9.286445049001744],[7.417803359152413,9.286451518917369],[7.417808693761691,9.286457657648953],[7.417814423773295,9.286463438909529],[7.417820524650439,9.286468837942865],[7.417826970268228,9.286473831629488],[7.417833733025538,9.28647839858569],[7.417840783963204,9.286482519255076],[7.417848092888026,9.286486175992323],[7.417855628502069,9.286489353138736],[7.417863358536676,9.286492037089296],[7.417871249890652,9.286494216350931],[7.417879268772008,9.286495881591719],[7.417887380842663,9.286497025680847],[7.417895551365483,9.286497643719155],[7.417903745353037,9.286497733060113],[7.417911927717411,9.286497293321144],[7.417920063420466,9.286496326385281],[7.417928117623872,9.286494836393091],[7.417936055838295,9.286492829724933],[7.417943844071078,9.286490314973667],[7.417951448971816,9.286487302907831],[7.417958837975156,9.286483806425538],[7.417965979440249,9.286479840499254],[7.41797284278625,9.286475422111661],[7.417979398623254,9.28647057018296],[7.417985618878161,9.286465305489839],[7.417991476914885,9.286459650576502],[7.417996947648413,9.286453629658137],[7.418002007652222,9.286447268517223],[7.418006635258605,9.286440594393126],[7.418010810651435,9.28643363586545],[7.418014515951043,9.286426422731664],[7.418017735290763,9.286418985879502],[7.418020454884891,9.286411357154689],[7.418022663087707,9.286403569224589],[7.418024350443348,9.286395655438302],[7.418025509726298,9.286387649683869],[7.418026135972329,9.286379586243154],[7.418026226499758,9.286371499645044],[7.418025780920932,9.286363424517599],[7.418024801143893,9.286355395439751],[7.418023291364193,9.286347446793249],[7.41802125804694,9.286339612615421],[7.418018709899113,9.286331926453437],[7.418015657832271,9.286324421220629],[7.418012114915831,9.286317129055567],[7.418008096321109,9.286310081184434],[7.418003619256339,9.286303307787318],[7.417998702893007,9.286296837868955],[7.417993368283728,9.286290699134552],[7.417987638272122,9.286284917871127],[7.41798153739498,9.286279518834958],[7.41797509177719,9.286274525145561],[7.417968329019881,9.286269958186704],[7.417961278082216,9.286265837514819],[7.417953969157392,9.286262180775275],[7.41794643354335,9.286259003626803],[7.417938703508742,9.286256319674452],[7.417930812154765,9.286254140411337],[7.41792279327341,9.286252475169404]]}},
{"type":"Feature","properties":{"fid":2,"id":"main_campus_in","name":"Main Campus In","road_type":"campus_road","walkable":true,"drivable":true,"access":"public","surface":"paved","status":"open"},"geometry":{"type":"LineString","coordinates":[[7.416375999420217,9.290725846900525],[7.416487625986927,9.290624447556882],[7.416563735009682,9.290554344289797],[7.41665126038585,9.290450441207406],[7.416732443343457,9.290341530714469],[7.4167971360128,9.290228864651654],[7.416874513519265,9.290074887640529],[7.416927789835196,9.289919658715272],[7.417026731564777,9.289585415553962],[7.417083813331843,9.289391379115495],[7.417102840587529,9.289305001569604],[7.417110451489807,9.28928246829326],[7.417123136326931,9.289232394340642],[7.417153579936035,9.289144764906331],[7.417204319284539,9.288965750422403],[7.417246179247051,9.288786735846982],[7.417300724046695,9.288588943412526],[7.417345120976636,9.28842495086637],[7.41737556458574,9.288317291595851],[7.417386980939153,9.288283491585492],[7.417400934259992,9.288237173047483],[7.417450405124783,9.288064417365218],[7.417520171728975,9.287831572615204],[7.417583595914604,9.287596224000945],[7.417624187393409,9.287463527372148],[7.417657167969937,9.287340845538546],[7.417716786704426,9.287130533723857],[7.417786553308619,9.286895184638706],[7.41786012536395,9.286643561239824],[7.417866467782514,9.28658973133501],[7.4178651992988,9.286543412573085],[7.417855628502069,9.286489353138734]]}},
{"type":"Feature","properties":{"fid":3,"id":"main_campus_out","name":"Main Campus Out","road_type":"campus_road","walkable":true,"drivable":true,"access":"public","surface":"paved","status":"open"},"geometry":{"type":"LineString","coordinates":[[7.416471495137388,9.29081272425227],[7.416551409611281,9.29073135443112],[7.416621542791643,9.290643047971288],[7.416661767694277,9.290592399769757],[7.416769588809847,9.290447185830496],[7.416852040251164,9.290306979211334],[7.416930686241345,9.290154254080164],[7.416974170239797,9.290026642445108],[7.417027091003501,9.289871336857953],[7.417138717570212,9.289488271582306],[7.417166624211886,9.28939563481876],[7.417180577532724,9.289349316427799],[7.417191993886139,9.289314264668402],[7.41724146475093,9.289149020612591],[7.417343227133391,9.28876956047994],[7.417440084837393,9.288417141207223],[7.417461608771615,9.288338933046573],[7.417476284181313,9.288289690862403],[7.417484192629618,9.288261445068715],[7.41753792090204,9.288069549248499],[7.417653367458326,9.287688163230335],[7.417761965490084,9.287309673404399],[7.417865671718608,9.286956287126401],[7.417897957619944,9.286836560547011],[7.417982096635541,9.286557520215302],[7.418010810651435,9.286433635865448]]}},
{"type":"Feature","properties":{"fid":4,"id":"chapel_road","name":"Chapel Road","road_type":"campus_road","walkable":true,"drivable":true,"access":"public","surface":"paved","status":"open"},"geometry":{"type":"LineString","coordinates":[[7.417386980939153,9.288283491585492],[7.417476284181313,9.288289690862403],[7.417578796485492,9.288309293417768],[7.417716009440541,9.288274614243806],[7.417883342312552,9.288213512833707],[7.418060715156885,9.288132594733662],[7.418249801302258,9.288030208539476],[7.418402074215789,9.287916262578509]]}},
{"type":"Feature","properties":{"fid":5,"id":"law_faculty_road","name":"Faculty Of Law Road","road_type":"campus_road","walkable":true,"drivable":true,"access":"public","surface":"paved","status":"open"},"geometry":{"type":"LineString","coordinates":[[7.418801831418328,9.289478781888269],[7.418734375486051,9.289463837316452],[7.418606346879887,9.289337487729261],[7.41848107157708,9.289205703702667],[7.418335146499087,9.289046747645864],[7.418216754454677,9.288906811912225],[7.418154805129114,9.28880763412541],[7.418145168567362,9.288745138519298],[7.418109375623703,9.288621505874358],[7.418059816163253,9.288559010235044],[7.417948307377237,9.288480211369576],[7.417725289805211,9.288401412486389],[7.417619287625913,9.288355220029377],[7.417578796485492,9.288309293417768]]}},
{"type":"Feature","properties":{"fid":6,"id":"main_campus_road","name":"Main Campus Road","road_type":"campus_road","walkable":true,"drivable":true,"access":"public","surface":"paved","status":"open"},"geometry":{"type":"LineString","coordinates":[[7.417191993886139,9.289314264668402],[7.417110451489807,9.28928246829326],[7.416789676754572,9.289110205837172],[7.416765292841649,9.289092707261583],[7.416754721795808,9.289082274839391],[7.416625755036553,9.288956042506236],[7.416527444310233,9.288856934444201],[7.416496788277295,9.288822507426612],[7.416473531976447,9.288793296621158],[7.416383678086799,9.288684799322436],[7.416293824197155,9.288567956040081],[7.416257882641298,9.288516837091796],[7.416226169503775,9.288473020844469],[7.416214541353349,9.288453199206973],[7.416199741889174,9.288431291080018],[7.416073243469121,9.288220670450531],[7.415822844277219,9.287819500998227],[7.415787892489042,9.287765760475388],[7.415606081071627,9.287849723524017],[7.415392802293509,9.287958990474975],[7.415072301397427,9.288121165570942],[7.414947597412407,9.288179824629719],[7.415165538021741,9.288543280539653],[7.415377735797314,9.2888832942721],[7.415392576591308,9.288908592231314],[7.415903587277759,9.289765012807406],[7.415989560997085,9.289732334154552],[7.416118969347798,9.289666276674382],[7.416322750313862,9.289553244957199],[7.416434309236887,9.289466636214158],[7.416556280326063,9.289321309631108],[7.416711113655212,9.289139098559074]]}},
{"type":"Feature","properties":{"fid":7,"id":"campus_junction","name":"Campus Junction","road_type":"campus_road","walkable":true,"drivable":true,"access":"public","surface":"paved","status":"open"},"geometry":{"type":"LineString","coordinates":[[7.416711113655212,9.289139098559074],[7.416765292841649,9.289092707261583]]}},
{"type":"Feature","properties":{"fid":8,"id":"campus_blocks","name":"Campus Blocks","road_type":"campus_road","walkable":true,"drivable":true,"access":"public","surface":"paved","status":"open"},"geometry":{"type":"LineString","coordinates":[[7.415392576591308,9.288908592231314],[7.415498440173411,9.288866586065494],[7.415660869965336,9.288778729396997],[7.415848288956025,9.288678541941126],[7.416077877219614,9.288527490030411],[7.416214541353349,9.288453199206973]]}},
{"type":"Feature","properties":{"fid":9,"id":"resturants_road","name":"Resturants Road","road_type":"campus_road","walkable":true,"drivable":true,"access":"public","surface":"paved","status":"open"},"geometry":{"type":"LineString","coordinates":[[7.414947597412407,9.288179824629717],[7.414871012507013,9.288066300931527],[7.41478538770166,9.287949290034161],[7.414755539305644,9.287908500587982],[7.414627557620493,9.287721600088465],[7.414553915105563,9.28761405478936],[7.414473753970984,9.287502619871724],[7.4144455275298,9.287463381257632],[7.414381427350584,9.287370216675061],[7.414326650833798,9.287311557480729],[7.414187961355132,9.287179286712384],[7.414067919201323,9.287076920605212],[7.413929229722656,9.286975704649617],[7.41372877098038,9.286892891573288],[7.413496844877399,9.286807778113337],[7.413447191645244,9.286798315576501],[7.41332785349583,9.286775573014989]]}},
{"type":"Feature","properties":{"fid":10,"id":"boys_hostel_road","name":"Boys Hostel Road","road_type":"campus_road","walkable":true,"drivable":true,"access":"public","surface":"paved","status":"open"},"geometry":{"type":"LineString","coordinates":[[7.41332785349583,9.286775573014989],[7.413168327377274,9.286758399291404],[7.412887836370808,9.286745816808383],[7.412706508851473,9.286743020700984],[7.412545074917054,9.286760219806395],[7.41245718351239,9.28676958372038],[7.412244690325672,9.286798942844747],[7.412030780517709,9.286803137005171],[7.411996781607832,9.286797544791261],[7.411947897563032,9.286791968930332],[7.411714873980122,9.286765389559559]]}},
{"type":"Feature","properties":{"fid":11,"id":"inner_boys_hostel_road","name":"Inner Boys Hostel Road","road_type":"campus_road","walkable":true,"drivable":true,"access":"public","surface":"paved","status":"open"},"geometry":{"type":"LineString","coordinates":[[7.410361199391279,9.287083654767493],[7.410468965310923,9.287028166065465],[7.410508010933981,9.287020459300601],[7.410567360281032,9.28699579765189],[7.410600158604402,9.286968053295018],[7.410681373500366,9.286904857807277],[7.410728228248038,9.286850910430674],[7.410790701244933,9.28678925627581],[7.410820375918458,9.286773842735402],[7.410871916140894,9.286761511902588],[7.410976558410696,9.286726060755823],[7.411048854064743,9.286703488224392],[7.411126375067576,9.286696533228866],[7.411193828407702,9.286690571804021],[7.41129769392347,9.286666973719939],[7.411333768919308,9.286658777536472],[7.411530594116266,9.286622335837672],[7.411588867006462,9.286622335837672],[7.411682103630778,9.286631537298668],[7.411781167544111,9.286654540950105],[7.411834778603092,9.286677544600023],[7.411869742337211,9.28670629916031],[7.411947897563032,9.286791968930332]]}},
{"type":"Feature","properties":{"fid":12,"id":"hostel_i_road","name":"Hostel I Road","road_type":"campus_road","walkable":true,"drivable":true,"access":"public","surface":"paved","status":"open"},"geometry":{"type":"LineString","coordinates":[[7.41129769392347,9.286666973719939],[7.411292396403249,9.28673577674512],[7.411291339298665,9.286771247216874],[7.411294510612418,9.286802544688971],[7.411306138762842,9.286846361145207]]}},
{"type":"Feature","properties":{"fid":13,"id":"hostel_l_road","name":"Hostel L Road","road_type":"campus_road","walkable":true,"drivable":true,"access":"public","surface":"paved","status":"open"},"geometry":{"type":"LineString","coordinates":[[7.411781167544111,9.286654540950106],[7.411739055093207,9.286559883350449],[7.411716911394931,9.286525377863407],[7.411680782203011,9.286479370542068],[7.411670293082774,9.28644946577996],[7.411660969420343,9.2864092093654]]}},
{"type":"Feature","properties":{"fid":14,"id":"clinic_road","name":"Clinic Road","road_type":"campus_road","walkable":true,"drivable":true,"access":"public","surface":"paved","status":"open"},"geometry":{"type":"LineString","coordinates":[[7.416247133268419,9.28616285165992],[7.41644594330935,9.286181457266032],[7.416514806369542,9.286187901804357],[7.416587425996947,9.286190995383683],[7.416835552585541,9.28620156551875],[7.417119378373799,9.286217506518206],[7.417407819215525,9.286292656934432],[7.417527810605684,9.286331370778928],[7.417689337477051,9.286360975480655],[7.417775926073091,9.286368770560154]]}},
{"type":"Feature","properties":{"fid":15,"id":"girls_hostel_road","name":"Girls Hostel Road","road_type":"campus_road","walkable":true,"drivable":true,"access":"public","surface":"paved","status":"open"},"geometry":{"type":"LineString","coordinates":[[7.416850911557653,9.279521253528022],[7.4171492193954,9.279579353340479],[7.417278627746112,9.279618988970803],[7.417425885524507,9.279701196189793],[7.417561243684446,9.279803955186425],[7.417679451824679,9.279889785506972],[7.417733295975223,9.279913939805498],[7.417803048624786,9.279933263243121],[7.417849550391165,9.279951378964929],[7.417905842003093,9.279992441264222],[7.417981713306131,9.280057657847335],[7.418117547413178,9.280185675549287],[7.418214222138013,9.280261761519812],[7.418308449401461,9.280330601193199],[7.418373319671491,9.280418140027209],[7.418418651551324,9.280507617067519],[7.418449817218709,9.280581715224232],[7.418468233294893,9.280680978768132],[7.418478149643605,9.280752280733022],[7.418440170702615,9.280953936725176],[7.418390251668274,9.281176297440432],[7.418332102125854,9.281597707470704],[7.418295758579797,9.281841607886674],[7.418214679565826,9.282267192033281],[7.418153930511281,9.282493891461888],[7.418072298969235,9.282754314591495],[7.417996362651051,9.283007243345129],[7.417983073795369,9.283048461346942],[7.41796936165381,9.283085368327617],[7.417962191307868,9.283104667705242],[7.417926121556732,9.283265792549097],[7.417907137477186,9.283411928971331],[7.417905239069231,9.283516847390743],[7.417912832701052,9.283739798927733],[7.417943207228324,9.284359940692331],[7.417983073795369,9.284976334289436],[7.417991837366651,9.285203508573785],[7.417991837366651,9.285269783236348],[7.417974618246882,9.285417626669206],[7.41795739912711,9.28551448957416],[7.41794706765525,9.285599457012603],[7.417938458095366,9.285674228341385],[7.417935014271412,9.285732006175433],[7.417922960887573,9.285852659856983],[7.417917795151643,9.285958019375911]]}},
{"type":"Feature","properties":{"fid":16,"id":"roundabout_out","name":"Roundabout Out","road_type":"campus_road","walkable":true,"drivable":true,"access":"public","surface":"paved","status":"open"},"geometry":{"type":"LineString","coordinates":[[7.417917795151643,9.285958019375911],[7.417948378159208,9.286031271263635],[7.417962223319612,9.286065430563886],[7.417966838373078,9.28612236272358],[7.417976068480014,9.28617474030233],[7.417987606113682,9.286227117873251],[7.417993368283728,9.28629069913455]]}},
{"type":"Feature","properties":{"fid":17,"id":"roundabout_in","name":"Roundabout In","road_type":"campus_road","walkable":true,"drivable":true,"access":"public","surface":"paved","status":"open"},"geometry":{"type":"LineString","coordinates":[[7.417917795151643,9.285958019375911],[7.417872363152836,9.286047116774318],[7.4178589021152,9.286146147648171],[7.417856454653811,9.286202909233976],[7.417836082605167,9.28626851627228]]}},
{"type":"Feature","properties":{"fid":18,"id":"inner_girls_hostel","name":"Inner Girls Hostel","road_type":"campus_road","walkable":true,"drivable":true,"access":"public","surface":"paved","status":"open"},"geometry":{"type":"LineString","coordinates":[[7.416642900054534,9.282825650448427],[7.416846423912455,9.282782609331695],[7.416962723259839,9.282765871118208],[7.417076599704154,9.282794565197982],[7.41720743646996,9.282854344523306],[7.417318890011202,9.282904559148703],[7.41744972677701,9.282954773766903],[7.417563603221322,9.282997814862494],[7.417672633859494,9.283026508923285],[7.417805893528371,9.283050420638814],[7.417910078360404,9.283067158838715],[7.41796936165381,9.283085368327617]]}},
{"type":"Feature","properties":{"fid":19,"id":"girls_gate_road","name":"Girls Gate Road","road_type":"campus_road","walkable":true,"drivable":true,"access":"public","surface":"paved","status":"open"},"geometry":{"type":"LineString","coordinates":[[7.41796936165381,9.283085368327617],[7.418018392551348,9.283057273885873],[7.418075907893972,9.283047612253281],[7.418117514737572,9.283045196845094],[7.418192162309914,9.283047612253281],[7.418259467498092,9.283058481589924],[7.418326772686267,9.283068143222213]]}},
{"type":"Feature","properties":{"fid":20,"id":"ict_road","name":"ICT road","road_type":"campus_road","walkable":true,"drivable":true,"access":"public","surface":"paved","status":"open"},"geometry":{"type":"LineString","coordinates":[[7.416473531976447,9.288793296621158],[7.416527377791553,9.288746214850663],[7.416587115626861,9.288688127304775],[7.416641582476702,9.288627438813716],[7.416677600877403,9.288591892692642],[7.416729432234509,9.288539006993629]]}},
{"type":"Feature","properties":{"fid":21,"id":"boys_and_girls_hostel_road","name":"Boys and Girls Hostel Road","road_type":"campus_road","walkable":true,"drivable":true,"access":"public","surface":"paved","status":"open"},"geometry":{"type":"LineString","coordinates":[[7.412887836370808,9.286745816808383],[7.412860598299256,9.286574748580643],[7.412813309749049,9.286303436839201],[7.412791836288823,9.286180235659556],[7.412734728856432,9.285973202462049],[7.412741721603256,9.285744315617984],[7.412734728856432,9.285503926761505],[7.412742887061059,9.285396959418287],[7.412700930580119,9.285216380065869],[7.412635664943098,9.28499209347949],[7.412590212088745,9.284826466369715]]}},
{"type":"Feature","properties":{"fid":22,"id":"hostel_c_and_d_road","name":"Hostel C and D road","road_type":"campus_road","walkable":true,"drivable":true,"access":"public","surface":"paved","status":"open"},"geometry":{"type":"LineString","coordinates":[[7.412742887061059,9.285396959418287],[7.412813417367178,9.285299707368781],[7.412884015758231,9.285245328164038],[7.412949448413356,9.285219837908908],[7.412985608564872,9.28520114505397],[7.413002827684642,9.284866372846704]]}},
{"type":"Feature","properties":{"fid":23,"id":"hostel_m_road","name":"Hostel M road","road_type":"campus_road","walkable":true,"drivable":true,"access":"public","surface":"paved","status":"open"},"geometry":{"type":"LineString","coordinates":[[7.410871916140894,9.286761511902588],[7.410723754319183,9.286738828238198],[7.410723754319183,9.286738828238198]]}},
{"type":"Feature","properties":{"fid":24,"id":"unidentified_road_med","name":"Unidentified Med Road","road_type":"campus","walkable":true,"drivable":true,"access":"public","surface":"paved","status":"open"},"geometry":{"type":"LineString","coordinates":[[7.416150899142955,9.284836008249833],[7.416144578241819,9.284837546375305],[7.416138372807926,9.284839489197971],[7.416132309413897,9.284841828398353],[7.416126414024116,9.284844553959633],[7.416120711883545,9.284847654210527],[7.416115227409629,9.284851115875277],[7.416109984087726,9.284854924130492],[7.416105004370544,9.284859062668628],[7.416100309581998,9.284863513767819],[7.416095919825892,9.284868258367759],[7.416091853899837,9.284873276151336],[7.416088129214752,9.284878545631615],[7.416084761720311,9.284884044243869],[7.416081765836641,9.284889748442177],[7.416079154392574,9.284895633800282],[7.41607693857072,9.284901675116163],[7.416075127859564,9.28490784651998],[7.41607373001285,9.284914121584819],[7.416072751016372,9.284920473439893],[7.416072195062344,9.284926874885571],[7.416072064531447,9.284933298509884],[7.416072359982633,9.28493971680588],[7.416073080150735,9.284946102289439],[7.416074221951883,9.284952427616938],[7.416075780496708,9.284958665702359],[7.416077749111282,9.284964789833264],[7.416080119365699,9.284970773785197],[7.416082881110161,9.284976591933962],[7.416086022518456,9.284982219365361],[7.41608953013859,9.284987631981881],[7.416093388950398,9.284992806605876],[7.416097582429854,9.284997721078819],[7.416102092619836,9.2850023543562],[7.416106900207014,9.285006686597622],[7.416111984604566,9.285010699251778],[7.41611732404032,9.285014375135869],[7.416122895649993,9.285017698509215],[7.416128675575094,9.285020655140627],[7.416134639065098,9.285023232369365],[7.416140760583428,9.285025419159348],[7.4161470139168,9.285027206146415],[7.41615337228748,9.285028585678418],[7.416159808467953,9.285029551847996],[7.416166294897498,9.285030100517861],[7.416172803800235,9.285030229338531],[7.416179307304041,9.285029937758376],[7.416185777559914,9.285029227025984],[7.416192186861224,9.285028100184817],[7.41619850776236,9.28502656206018],[7.416204713196254,9.285024619238555],[7.416210776590282,9.285022280039392],[7.416216671980064,9.285019554479494],[7.416222374120634,9.285016454230121],[7.416227858594549,9.285012992567005],[7.416233101916453,9.285009184313507],[7.416238081633635,9.285005045777144],[7.416242776422181,9.285000594679751],[7.416247166178286,9.284995850081602],[7.416251232104342,9.28499083229978],[7.416254956789427,9.284985562821186],[7.416258324283868,9.284980064210528],[7.416261320167538,9.284974360013688],[7.416263931611605,9.284968474656909],[7.416266147433459,9.284962433342178],[7.416267958144616,9.284956261939321],[7.41626935599133,9.284949986875235],[7.416270334987807,9.284943635020699],[7.416270890941835,9.284937233575327],[7.416271021472733,9.284930809951087],[7.416270726021546,9.284924391654926],[7.416270005853445,9.284918006170972],[7.416268864052297,9.284911680842853],[7.416267305507471,9.284905442756596],[7.416265336892897,9.284899318624651],[7.41626296663848,9.284893334671498],[7.416260204894018,9.28488751652135],[7.416257063485723,9.284881889088432],[7.416253555865588,9.284876476470279],[7.416249697053781,9.284871301844566],[7.416245503574324,9.284866387369847],[7.416240993384346,9.28486175409067],[7.416236185797165,9.284857421847455],[7.416231101399613,9.284853409191546],[7.416225761963861,9.284849733305768],[7.416220190354188,9.284846409930829],[7.416214410429085,9.284843453297947],[7.416208446939081,9.284840876067886],[7.416202325420751,9.28483868927675],[7.416196072087379,9.284836902288724],[7.416189713716698,9.284835522755966],[7.416183277536228,9.284834556585853],[7.416176791106681,9.284834007915682],[7.416170282203944,9.284833879094938],[7.41616377870014,9.284834170675257],[7.416157308444266,9.284834881408047],[7.416150899142955,9.284836008249833]]}},
{"type":"Feature","properties":{"fid":25,"id":"unidentified_med_road","name":"Unidentified road med","road_type":"campus","walkable":true,"drivable":true,"access":"public","surface":"paved","status":"open"},"geometry":{"type":"LineString","coordinates":[[7.416587425996947,9.286190995383683],[7.416439913170843,9.285837213543051],[7.41636323597977,9.285604375358025],[7.416210776590282,9.285022280039392]]}},
{"type":"Feature","properties":{"fid":26,"id":"pham_road","name":"Pham Road","road_type":"campus","walkable":true,"drivable":true,"access":"public","surface":"paved","status":"open"},"geometry":{"type":"LineString","coordinates":[[7.416270726021546,9.284924391654926],[7.416504793870979,9.284882576001317],[7.416569674571118,9.284882576001317],[7.416640453516724,9.284894217938222],[7.41699434824475,9.285051384048566],[7.417088720172225,9.285173624307889],[7.417183092099698,9.285220192014508],[7.417713934191739,9.285138698523866],[7.417879085064818,9.28515034045226],[7.417991837366651,9.285203508573785]]}},
{"type":"Feature","properties":{"fid":27,"id":"senate_roundabout","name":"Senate Roundabout","road_type":"campus","walkable":true,"drivable":true,"access":"public","surface":"paved","status":"open"},"geometry":{"type":"LineString","coordinates":[[7.418154211201895,9.285592944834365],[7.418153689277165,9.285587931284587],[7.418152836214305,9.28558296215734],[7.418151655666258,9.2855780587312],[7.418150152688314,9.285573242003384],[7.418148333716454,9.285568532599871],[7.418146206539795,9.285563950687052],[7.418143780267235,9.285559515885391],[7.418141065288446,9.285555247185385],[7.418138073229382,9.285551162866279],[7.418134816902501,9.285547280417758],[7.418131310251892,9.285543616465068],[7.418127568293575,9.285540186697828],[7.418123607051186,9.28553700580283],[7.418119443487375,9.285534087401164],[7.418115095431163,9.28553144398988],[7.418110581501592,9.285529086888481],[7.418105921028002,9.285527026190438],[7.418101133967258,9.285525270719981],[7.418096240818286,9.285523827994316],[7.418091262534303,9.285522704191411],[7.418086220433086,9.285521904123572],[7.418081136105686,9.285521431216809],[7.418076031323971,9.28552128749619],[7.418070927947402,9.285521473577141],[7.418065847829421,9.285521988662842],[7.418060812723875,9.285522830547608],[7.418055844191854,9.285523995626363],[7.41805096350938,9.285525478910055],[7.418046191576281,9.285527274047034],[7.41804154882671,9.285529373350236],[7.418037055141633,9.285531767830124],[7.418032729763698,9.285534447233159],[7.418028591214835,9.285537400085721],[7.418024657216952,9.285540613743235],[7.418020944616027,9.285544074444315],[7.418017469309989,9.285547767369708],[7.41801424618063,9.285551676705731],[7.418011289029887,9.285555785711992],[7.418008610520734,9.285560076793098],[7.418006222122954,9.285564531573973],[7.418004134064039,9.285569130978555],[7.418002355285373,9.285573855311478],[7.418000893403962,9.285578684342424],[7.417999754679805,9.285583597392735],[7.417998943989096,9.285588573423974],[7.417998464803333,9.285593591128006],[7.417998319174468,9.285598629018249],[7.417998507726104,9.285603665521689],[7.417999029650831,9.285608679071244],[7.417999882713692,9.285613648198124],[7.418001063261739,9.285618551623768],[7.418002566239682,9.28562336835096],[7.418004385211544,9.285628077753735],[7.418006512388202,9.285632659665715],[7.418008938660761,9.285637094466454],[7.418011653639551,9.28564136316546],[7.418014645698615,9.285645447483518],[7.418017902025497,9.285649329930949],[7.418021408676106,9.285652993882533],[7.418025150634424,9.285656423648671],[7.418029111876812,9.285659604542586],[7.418033275440622,9.285662522943205],[7.418037623496834,9.2856651663535],[7.418042137426404,9.285667523453986],[7.418046797899995,9.285669584151204],[7.418051584960739,9.285671339620935],[7.418056478109711,9.285672782345994],[7.418061456393693,9.285673906148416],[7.418066498494913,9.285674706215911],[7.418071582822313,9.285675179122462],[7.418076687604026,9.285675322843021],[7.418081790980595,9.285675136762151],[7.418086871098576,9.285674621676677],[7.418091906204124,9.285673779792273],[7.418096874736142,9.285672614714017],[7.418101755418617,9.285671131430949],[7.418106527351716,9.28566933629471],[7.418111170101287,9.285667236992341],[7.418115663786364,9.285664842513381],[7.418119989164301,9.28566216311134],[7.418124127713162,9.28565921025983],[7.418128061711045,9.285655996603406],[7.41813177431197,9.285652535903427],[7.418135249618009,9.285648842979141],[7.418138472747368,9.285644933644205],[7.418141429898111,9.285640824638984],[7.418144108407264,9.285636533558868],[7.418146496805043,9.285632078778908],[7.418148584863959,9.285627479375155],[7.418150363642624,9.285622755042953],[7.418151825524035,9.285617926012614],[7.418152964248192,9.285613012962784],[7.418153774938903,9.285608036931894],[7.418154254124663,9.28560301922807],[7.418154399753528,9.285597981337888],[7.418154211201895,9.285592944834365]]}},
{"type":"Feature","properties":{"fid":29,"id":"auditorium_parking_road","name":"Auditorium Parking oad","road_type":"campus","walkable":true,"drivable":true,"access":"public","surface":"paved","status":"open"},"geometry":{"type":"LineString","coordinates":[[7.417527810605684,9.286331370778928],[7.417500122143507,9.286463680037757]]}},
{"type":"Feature","properties":{"fid":30,"id":"senate_parking_in_road","name":"Senate Parking IN road","road_type":"campus","walkable":true,"drivable":true,"access":"public","surface":"paved","status":"open"},"geometry":{"type":"LineString","coordinates":[[7.417938458095366,9.285674228341385],[7.418076687604026,9.285675322843021]]}},
{"type":"Feature","properties":{"fid":31,"id":"senate_parking_out_road","name":"Senate Parking OUT road","road_type":"campus","walkable":true,"drivable":true,"access":"public","surface":"paved","status":"open"},"geometry":{"type":"LineString","coordinates":[[7.41795739912711,9.28551448957416],[7.418086220433086,9.285521904123572]]}},
{"type":"Feature","properties":{"fid":32,"id":"inner_girls_and_boys_hostel_road","name":"Inner Girls and Boys Hostel Road","road_type":"campus","walkable":true,"drivable":true,"access":"public","surface":"paved","status":"open"},"geometry":{"type":"LineString","coordinates":[[7.412545074917054,9.286760219806395],[7.412543503015836,9.286677523129285],[7.412531891227604,9.286594031779886],[7.412339685231929,9.286280548202688],[7.412323346279804,9.286061711290193],[7.41227666355944,9.285941926817058],[7.412208973614913,9.285799106814805]]}},
{"type":"Feature","properties":{"fid":33,"id":"block_d_parking_road","name":"Block D Parking Road","road_type":"campus","walkable":true,"drivable":true,"access":"public","surface":"paved","status":"open"},"geometry":{"type":"LineString","coordinates":[[7.41478538770166,9.287949290034161],[7.414816663265423,9.287927152783327]]}},
{"type":"Feature","properties":{"fid":34,"id":"water_factory_road","name":"Water Factory Road","road_type":"campus","walkable":true,"drivable":true,"access":"public","surface":"paved","status":"open"},"geometry":{"type":"LineString","coordinates":[[7.414473753970984,9.287502619871724],[7.414473753970984,9.287502619871724],[7.4145141264599,9.287459662960517],[7.4145473029977,9.287412187595745],[7.414578820708612,9.287389268451831],[7.414628738477901,9.287351327731939]]}},
{"type":"Feature","properties":{"fid":35,"id":"generator_house_road","name":"Generator House Road","road_type":"campus","walkable":true,"drivable":true,"access":"public","surface":"paved","status":"open"},"geometry":{"type":"LineString","coordinates":[[7.413929229722656,9.286975704649617],[7.413929229722656,9.286975704649617],[7.414023368027911,9.286911644770033]]}},
{"type":"Feature","properties":{"fid":36,"id":"vendors_road","name":"Vendors Road","road_type":"campus","walkable":true,"drivable":true,"access":"public","surface":"paved","status":"open"},"geometry":{"type":"LineString","coordinates":[[7.413929229722656,9.286975704649617],[7.413936671547236,9.286909450920907],[7.413838860133143,9.286681290536402],[7.413812184292935,9.286635219671501],[7.413803292346199,9.286591342651679],[7.41379217741278,9.28655843488321],[7.413823299226355,9.286422416074071]]}},
{"type":"Feature","properties":{"fid":37,"id":"boys_and_girls_junction_walkway","name":"Boys and Girls Junction","road_type":"campus","walkable":true,"drivable":true,"access":"public","surface":"paved","status":"open"},"geometry":{"type":"LineString","coordinates":[[7.41227666355944,9.285941926817058],[7.412419085027262,9.285760020609116]]}},
{"type":"Feature","properties":{"fid":38,"id":"girls_and_boys_junction_walkway","name":"Boys and Girls Junction v2","road_type":"campus","walkable":true,"drivable":true,"access":"public","surface":"paved","status":"open"},"geometry":{"type":"LineString","coordinates":[[7.412419085027262,9.285760020609116],[7.412469421399105,9.285839242002538],[7.412495633486989,9.285855161137503],[7.412517812945967,9.285869090380006],[7.412734728856432,9.285973202462049]]}},
{"type":"Feature","properties":{"fid":39,"id":"hostel_q_and_p_road","name":"Hostel Q and P road","road_type":"campus","walkable":true,"drivable":true,"access":"public","surface":"paved","status":"open"},"geometry":{"type":"LineString","coordinates":[[7.412208973614913,9.285799106814805],[7.412419085027262,9.285760020609116],[7.412534021776923,9.285738619492426]]}}
]
}
