{
"type": "FeatureCollection",
"name": "walkways",
"crs": { "type": "name", "properties": { "name": "urn:ogc:def:crs:OGC:1.3:CRS84" } },
"features": [
{"type":"Feature","properties":{"fid":1,"id":"Block_a_b_walkway","name":"Block A and B walkway","walkable":true,"access":"public","surface":"paved","status":"open"},"geometry":{"type":"LineString","coordinates":[[7.415785094229097,9.288712323573879],[7.41583272841617,9.288785907145092],[7.415981825419387,9.289039087223939],[7.416006423351572,9.28907983516407],[7.416009937341885,9.289088504937958],[7.416014329829774,9.289094573779549],[7.416077581655395,9.28920381291022],[7.416154010944687,9.28933992828728],[7.416285003869704,9.289574181878072]]}},
{"type":"Feature","properties":{"fid":2,"id":"block_a_b_garden_walkway","name":"Block A and B garden walkway","walkable":true,"access":"public","surface":"paved","status":"open"},"geometry":{"type":"LineString","coordinates":[[7.416009937341885,9.289088504937958],[7.416032828716762,9.289078673443317],[7.416054963459199,9.289068346962397],[7.416125392185148,9.289030218414826],[7.416199845409721,9.288989309656047],[7.416293153410352,9.288939782249461],[7.41635020067837,9.28890641975832],[7.416496788277295,9.288822507426612]]}},
{"type":"Feature","properties":{"fid":3,"id":"block_c_walkway","name":"Block C walkway","walkable":true,"access":"public","surface":"paved","status":"open"},"geometry":{"type":"LineString","coordinates":[[7.415392802293509,9.287958990474975],[7.415453643807429,9.288061759133887],[7.415512803937223,9.288157806387074],[7.415588464511387,9.288288079231897],[7.415708853327111,9.288502373939004],[7.41583016428986,9.288688230737439]]}},
{"type":"Feature","properties":{"fid":4,"id":"behind_hostel_k","name":"Behind Hostel K","walkable":true,"access":"public","surface":"paved","status":"open"},"geometry":{"type":"LineString","coordinates":[[7.411801763238903,9.28677530041],[7.411726972218536,9.286861960888386],[7.411690505173714,9.286892551589769],[7.411393298758393,9.286939337363199],[7.411371418531498,9.286861960888386]]}},
{"type":"Feature","properties":{"fid":5,"id":"Hostel_m_road","name":"Hostel M Road","walkable":true,"access":"public","surface":"paved","status":"open"},"geometry":{"type":"LineString","coordinates":[[7.410730795457497,9.28657684001757],[7.410774451281659,9.286562478800189],[7.410804674544543,9.286537070491068],[7.410838255947744,9.286530442236208],[7.410908776894472,9.286521604562875],[7.411027431185789,9.286501719797048],[7.411156159898065,9.286471892646199],[7.411427049883902,9.286411133627354],[7.411546823555325,9.286393458274437],[7.411591598759596,9.286392353564853],[7.411660969420343,9.2864092093654]]}},
{"type":"Feature","properties":{"fid":6,"id":"dry_cleaner_road","name":"Dry Cleaner Road","walkable":true,"access":"public","surface":"paved","status":"open"},"geometry":{"type":"LineString","coordinates":[[7.411660969420343,9.2864092093654],[7.411705199445334,9.286372045324629],[7.41172696926159,9.286306249025584],[7.411731051102137,9.286267308352981],[7.411728329875105,9.286212254291225],[7.411728329875105,9.286142429615101],[7.411728329875105,9.286116916749197],[7.411752820918393,9.286088718316305],[7.411709281285884,9.285873873038788]]}},
{"type":"Feature","properties":{"fid":7,"id":"ict_walkway","name":"ICT Walkway","walkable":true,"access":"public","surface":"paved","status":"open"},"geometry":{"type":"LineString","coordinates":[[7.41528593802973,9.287148043376602],[7.415248599695289,9.287277943990324],[7.415210808921661,9.287341565542601],[7.415124112440988,9.28744028861809],[7.415095213614096,9.287501716295466],[7.41506713048323,9.287586466715751]]}},
{"type":"Feature","properties":{"fid":9,"id":"innerss_girls_hostel_walkway","name":"Girls Hostel Inner","walkable":true,"access":"public","surface":"paved","status":"open"},"geometry":{"type":"LineString","coordinates":[[7.411728329875105,9.286116916749197],[7.41186520756946,9.286092102451775],[7.411928721474718,9.286077476756446],[7.411956244166993,9.286067029830832],[7.411983766859273,9.286071208601113],[7.412225119699242,9.286031510281425]]}},
{"type":"Feature","properties":{"fid":11,"id":"randy_hostel_road","name":"Randy Hostel Road","walkable":true,"access":"public","surface":"paved","status":"open"},"geometry":{"type":"LineString","coordinates":[[7.412534021776923,9.285738619492426],[7.412501152153157,9.285512414545655],[7.412480840070262,9.28545045440997],[7.41246791419933,9.285401250765002],[7.412440215904472,9.28529919873861],[7.412414364162607,9.285178923097922],[7.412366353784853,9.285111495826747],[7.412357121019901,9.285062292134194],[7.412357121019901,9.285062292134194],[7.412360814125882,9.284752490948314],[7.412364507231865,9.28467412942849],[7.412370046890834,9.284526518145888],[7.412373739996815,9.284448156575539]]}},
{"type":"Feature","properties":{"fid":12,"id":"hostel_q_walkway","name":"Hostel Q walkway","walkable":true,"access":"public","surface":"paved","status":"open"},"geometry":{"type":"LineString","coordinates":[[7.412225119699242,9.286031510281425],[7.41227666355944,9.285941926817058]]}}
]
}
